{"type": "FeatureCollection", "features": [{"type": "Feature", "properties": {"tract_fips": "17031804204"}, "geometry": {"type": "Polygon", "coordinates": [[[-88.238449, 42.154249], [-88.136089, 42.154213], [-88.136271, 42.128752], [-88.136611, 42.12726], [-88.138023, 42.123334], [-88.138635, 42.122044], [-88.14052, 42.119101], [-88.14094, 42.118015], [-88.141091, 42.116667], [-88.141094, 42.11039], [-88.170603, 42.110298], [-88.175158, 42.113099], [-88.17694, 42.113889], [-88.177593, 42.114047], [-88.178991, 42.113054], [-88.178304, 42.112465], [-88.179221, 42.110556], [-88.179743, 42.110267], [-88.179581, 42.109614], [-88.180146, 42.106619], [-88.179977, 42.071874], [-88.179801, 42.067326], [-88.183581, 42.067226], [-88.184376, 42.067026], [-88.192765, 42.067427], [-88.203516, 42.067434], [-88.209115, 42.067347], [-88.214178, 42.06703], [-88.238186, 42.066985], [-88.238344, 42.103115], [-88.238292, 42.141967], [-88.238449, 42.154249]]]}}, {"type": "Feature", "properties": {"tract_fips": "17031820606"}, "geometry": {"type": "Polygon", "coordinates": [[[-87.883866, 41.731627], [-87.880065, 41.734412], [-87.878554, 41.733209], [-87.875725, 41.735627], [-87.871281, 41.73853], [-87.870452, 41.737799], [-87.871613, 41.737199], [-87.870513, 41.735961], [-87.862008, 41.740233], [-87.861027, 41.739151], [-87.86024, 41.739562], [-87.859023, 41.739567], [-87.860505, 41.74099], [-87.856095, 41.742942], [-87.852359, 41.743711], [-87.852847, 41.745049], [-87.854136, 41.746431], [-87.844971, 41.746562], [-87.842472, 41.746048], [-87.838471, 41.744544], [-87.838155, 41.732732], [-87.87178, 41.732079], [-87.876478, 41.731863], [-87.876672, 41.731998], [-87.879279, 41.732017], [-87.880854, 41.731731], [-87.883866, 41.731627]]]}}, {"type": "Feature", "properties": {"tract_fips": "17031824004"}, "geometry": {"type": "Polygon", "coordinates": [[[-88.004455, 41.685666], [-87.982152, 41.686078], [-87.981659, 41.686609], [-87.980907, 41.687034], [-87.979166, 41.687332], [-87.97797, 41.687231], [-87.976264, 41.686687], [-87.97526, 41.686533], [-87.971626, 41.687251], [-87.96933, 41.68676], [-87.966674, 41.686742], [-87.961086, 41.689873], [-87.958189, 41.691149], [-87.955672, 41.693024], [-87.952137, 41.693768], [-87.948543, 41.694837], [-87.947374, 41.695412], [-87.943583, 41.698209], [-87.942305, 41.698918], [-87.942245, 41.700115], [-87.941971, 41.701245], [-87.942188, 41.702465], [-87.941783, 41.703035], [-87.940847, 41.703535], [-87.938034, 41.70459], [-87.936761, 41.705307], [-87.935834, 41.70609], [-87.93501, 41.707625], [-87.934226, 41.708457], [-87.933524, 41.708852], [-87.930286, 41.710064], [-87.927239, 41.712634], [-87.92561, 41.712753], [-87.924917, 41.712995], [-87.921532, 41.716238], [-87.920458, 41.71651], [-87.918207, 41.716573], [-87.917009, 41.716142], [-87.915132, 41.716587], [-87.914264, 41.716598], [-87.914361, 41.711614], [-87.913734, 41.696531], [-87.913771, 41.693776], [-87.913302, 41.680118], [-87.913169, 41.679677], [-87.912946, 41.67304], [-87.912821, 41.673032], [-87.912798, 41.672547], [-87.912922, 41.672541], [-87.912692, 41.665744], [-87.970086, 41.66461], [-87.971252, 41.66496], [-87.983879, 41.670364], [-87.990197, 41.671228], [-87.995419, 41.672895], [-87.997639, 41.672868], [-87.997829, 41.673201], [-88.001081, 41.67214], [-88.002081, 41.673904], [-88.002168, 41.674791], [-87.999249, 41.675729], [-88.0005, 41.677878], [-88.001823, 41.67852], [-88.00168, 41.680149], [-88.00186, 41.681042], [-88.004455, 41.685666]]]}}, {"type": "Feature", "properties": {"tract_fips": "17031824503"}, "geometry": {"type": "Polygon", "coordinates": [[[-87.825522, 41.642344], [-87.825568, 41.645566], [-87.791745, 41.646315], [-87.738082, 41.647163], [-87.737758, 41.638373], [-87.747641, 41.636731], [-87.7571, 41.63462], [-87.756764, 41.624907], [-87.784871, 41.624394], [-87.785019, 41.63171], [-87.819674, 41.63112], [-87.820034, 41.642101], [-87.82428, 41.642025], [-87.824337, 41.642484], [-87.825522, 41.642344]]]}}, {"type": "Feature", "properties": {"tract_fips": "17063000500"}, "geometry": {"type": "Polygon", "coordinates": [[[-88.59004, 41.303464], [-88.588333, 41.304139], [-88.572224, 41.314659], [-88.561191, 41.320143], [-88.558798, 41.321611], [-88.554421, 41.323335], [-88.544569, 41.325507], [-88.53764, 41.326517], [-88.51471, 41.331143], [-88.502305, 41.332367], [-88.499612, 41.332996], [-88.498537, 41.333707], [-88.496502, 41.33621], [-88.495027, 41.337322], [-88.492135, 41.338329], [-88.490487, 41.338714], [-88.481848, 41.341905], [-88.478135, 41.342623], [-88.475616, 41.342938], [-88.469655, 41.343335], [-88.467072, 41.34409], [-88.46409, 41.345246], [-88.463363, 41.345743], [-88.45647, 41.347509], [-88.452319, 41.348387], [-88.444722, 41.349073], [-88.439874, 41.349301], [-88.437705, 41.349894], [-88.435545, 41.350742], [-88.432965, 41.352249], [-88.428253, 41.353493], [-88.420369, 41.353785], [-88.419836, 41.352946], [-88.419653, 41.352328], [-88.419663, 41.351832], [-88.420145, 41.351224], [-88.420004, 41.350967], [-88.41682, 41.351656], [-88.412168, 41.351582], [-88.410563, 41.352192], [-88.409535, 41.352947], [-88.408534, 41.352885], [-88.407824, 41.353166], [-88.407241, 41.353661], [-88.405949, 41.354017], [-88.40578, 41.354226], [-88.405841, 41.354398], [-88.405485, 41.354676], [-88.404255, 41.355369], [-88.403438, 41.355584], [-88.40195, 41.35629], [-88.400558, 41.357298], [-88.399197, 41.356565], [-88.397558, 41.356169], [-88.396888, 41.356139], [-88.395743, 41.356458], [-88.395211, 41.356243], [-88.395136, 41.355861], [-88.395342, 41.355279], [-88.39581, 41.354661], [-88.397061, 41.353683], [-88.397185, 41.353342], [-88.397101, 41.352993], [-88.395731, 41.352147], [-88.39284, 41.350905], [-88.392542, 41.350466], [-88.392684, 41.349619], [-88.392604, 41.34902], [-88.391803, 41.348366], [-88.390523, 41.348102], [-88.38788, 41.348438], [-88.384775, 41.348261], [-88.382332, 41.348636], [-88.381038, 41.348674], [-88.379578, 41.348479], [-88.378653, 41.348105], [-88.377967, 41.347306], [-88.377876, 41.346154], [-88.377522, 41.344952], [-88.37786, 41.344064], [-88.378766, 41.343401], [-88.380039, 41.343329], [-88.380932, 41.343574], [-88.383719, 41.346105], [-88.38419, 41.346252], [-88.384557, 41.34594], [-88.384559, 41.345515], [-88.384061, 41.344137], [-88.383588, 41.340566], [-88.382172, 41.339094], [-88.381512, 41.338702], [-88.378384, 41.338955], [-88.376066, 41.33838], [-88.375902, 41.338174], [-88.376111, 41.337826], [-88.376021, 41.337444], [-88.374305, 41.335387], [-88.372227, 41.333877], [-88.37148, 41.333908], [-88.370344, 41.334989], [-88.370017, 41.33512], [-88.367321, 41.334359], [-88.366269, 41.333876], [-88.365929, 41.333581], [-88.365777, 41.333175], [-88.366055, 41.331555], [-88.365836, 41.330108], [-88.365225, 41.328727], [-88.364008, 41.327201], [-88.363069, 41.326443], [-88.361618, 41.325692], [-88.357699, 41.324438], [-88.355404, 41.32241], [-88.354936, 41.322232], [-88.354225, 41.322254], [-88.352346, 41.323091], [-88.348404, 41.324087], [-88.347743, 41.324105], [-88.347304, 41.323844], [-88.34625, 41.322453], [-88.345831, 41.321012], [-88.345475, 41.320636], [-88.344823, 41.319146], [-88.344293, 41.318604], [-88.343657, 41.318539], [-88.341842, 41.319721], [-88.341181, 41.319697], [-88.340162, 41.319318], [-88.339531, 41.318748], [-88.339209, 41.318017], [-88.339532, 41.315004], [-88.339858, 41.313711], [-88.33964, 41.31201], [-88.339151, 41.311506], [-88.338036, 41.311217], [-88.337785, 41.310668], [-88.33828, 41.309569], [-88.338999, 41.308878], [-88.339669, 41.308489], [-88.340371, 41.308285], [-88.34272, 41.308167], [-88.344517, 41.307845], [-88.345957, 41.308056], [-88.348029, 41.309567], [-88.348976, 41.309949], [-88.350888, 41.310385], [-88.352444, 41.310532], [-88.353243, 41.310391], [-88.353641, 41.310088], [-88.354205, 41.308964], [-88.354624, 41.308576], [-88.355183, 41.308314], [-88.355937, 41.308273], [-88.356347, 41.308345], [-88.356758, 41.308964], [-88.357304, 41.309301], [-88.358018, 41.309497], [-88.360797, 41.309755], [-88.36266, 41.310813], [-88.362715, 41.30807], [-88.36254, 41.307899], [-88.357068, 41.308041], [-88.355704, 41.307779], [-88.354557, 41.308023], [-88.349085, 41.308194], [-88.348195, 41.308124], [-88.346898, 41.307673], [-88.344947, 41.307519], [-88.34343, 41.307636], [-88.34299, 41.286504], [-88.367113, 41.286093], [-88.429612, 41.284638], [-88.429884, 41.282643], [-88.429856, 41.277356], [-88.439116, 41.27709], [-88.439409, 41.276969], [-88.439182, 41.269791], [-88.448902, 41.269516], [-88.44934, 41.283696], [-88.44923, 41.284031], [-88.448857, 41.284389], [-88.449074, 41.291409], [-88.481163, 41.290595], [-88.480904, 41.283548], [-88.481215, 41.283341], [-88.514528, 41.283036], [-88.513693, 41.268289], [-88.588474, 41.267953], [-88.588695, 41.275294], [-88.59004, 41.303464]]]}}, {"type": "Feature", "properties": {"tract_fips": "17063000600"}, "geometry": {"type": "Polygon", "coordinates": [[[-88.588474, 41.267953], [-88.513693, 41.268289], [-88.514528, 41.283036], [-88.481043, 41.283375], [-88.480904, 41.283548], [-88.481163, 41.290595], [-88.449074, 41.291409], [-88.448857, 41.284389], [-88.44923, 41.284031], [-88.44934, 41.283696], [-88.448902, 41.269516], [-88.439182, 41.269791], [-88.439409, 41.276969], [-88.439116, 41.27709], [-88.429856, 41.277356], [-88.429884, 41.282643], [-88.429612, 41.284638], [-88.367113, 41.286093], [-88.34299, 41.286504], [-88.341791, 41.240476], [-88.342053, 41.239525], [-88.341739, 41.238325], [-88.341779, 41.237948], [-88.342622, 41.237027], [-88.342479, 41.236354], [-88.341718, 41.235719], [-88.3416, 41.234687], [-88.340489, 41.200748], [-88.339819, 41.188333], [-88.338977, 41.165693], [-88.339293, 41.164741], [-88.33894, 41.163625], [-88.338858, 41.162687], [-88.33683, 41.11222], [-88.4592, 41.10917], [-88.48492, 41.10865], [-88.5095, 41.10838], [-88.58624, 41.10828], [-88.586535, 41.162412], [-88.586871, 41.193104], [-88.58748, 41.229799], [-88.588474, 41.267953]]]}}, {"type": "Feature", "properties": {"tract_fips": "17063000700"}, "geometry": {"type": "Polygon", "coordinates": [[[-88.420369, 41.353785], [-88.417725, 41.353934], [-88.414452, 41.354518], [-88.402281, 41.359606], [-88.398648, 41.360727], [-88.383219, 41.363616], [-88.381021, 41.364302], [-88.378249, 41.364856], [-88.374106, 41.365348], [-88.368171, 41.367363], [-88.361518, 41.36933], [-88.358684, 41.370354], [-88.348908, 41.375031], [-88.339193, 41.379335], [-88.334809, 41.381047], [-88.330617, 41.382355], [-88.328769, 41.383151], [-88.323544, 41.385835], [-88.319592, 41.387551], [-88.316136, 41.390211], [-88.315104, 41.390795], [-88.312392, 41.391635], [-88.306873, 41.392898], [-88.295056, 41.395947], [-88.290048, 41.398183], [-88.287328, 41.399607], [-88.285063, 41.399943], [-88.281551, 41.399983], [-88.276519, 41.399695], [-88.269455, 41.399599], [-88.268153, 41.399397], [-88.267231, 41.399059], [-88.265183, 41.398179], [-88.263231, 41.396871], [-88.261255, 41.395051], [-88.259965, 41.393101], [-88.258719, 41.3923], [-88.254686, 41.390315], [-88.252238, 41.388735], [-88.249583, 41.387572], [-88.248938, 41.368366], [-88.248857, 41.360507], [-88.248044, 41.333167], [-88.247971, 41.325108], [-88.246993, 41.288579], [-88.34299, 41.286504], [-88.34343, 41.307636], [-88.344947, 41.307519], [-88.346898, 41.307673], [-88.348195, 41.308124], [-88.349085, 41.308194], [-88.354557, 41.308023], [-88.355704, 41.307779], [-88.357068, 41.308041], [-88.36254, 41.307899], [-88.362715, 41.30807], [-88.36266, 41.310813], [-88.360797, 41.309755], [-88.358018, 41.309497], [-88.357304, 41.309301], [-88.356758, 41.308964], [-88.356347, 41.308345], [-88.355937, 41.308273], [-88.355183, 41.308314], [-88.354624, 41.308576], [-88.354205, 41.308964], [-88.353615, 41.310118], [-88.35316, 41.310425], [-88.352444, 41.310532], [-88.350562, 41.310331], [-88.348822, 41.309897], [-88.347687, 41.309375], [-88.346158, 41.308151], [-88.345279, 41.307893], [-88.343949, 41.307886], [-88.34272, 41.308167], [-88.341128, 41.308196], [-88.339669, 41.308489], [-88.338999, 41.308878], [-88.33828, 41.309569], [-88.337785, 41.310668], [-88.338036, 41.311217], [-88.339151, 41.311506], [-88.33964, 41.31201], [-88.339858, 41.313711], [-88.339532, 41.315004], [-88.339209, 41.318017], [-88.339404, 41.318559], [-88.339858, 41.319092], [-88.340562, 41.319511], [-88.341842, 41.319721], [-88.343657, 41.318539], [-88.344293, 41.318604], [-88.344823, 41.319146], [-88.345475, 41.320636], [-88.345831, 41.321012], [-88.34625, 41.322453], [-88.347304, 41.323844], [-88.347743, 41.324105], [-88.348404, 41.324087], [-88.352346, 41.323091], [-88.354225, 41.322254], [-88.354936, 41.322232], [-88.355404, 41.32241], [-88.357699, 41.324438], [-88.361618, 41.325692], [-88.363069, 41.326443], [-88.364008, 41.327201], [-88.365225, 41.328727], [-88.365836, 41.330108], [-88.366055, 41.331555], [-88.365777, 41.333175], [-88.365929, 41.333581], [-88.366269, 41.333876], [-88.367321, 41.334359], [-88.370017, 41.33512], [-88.370344, 41.334989], [-88.37148, 41.333908], [-88.372227, 41.333877], [-88.374305, 41.335387], [-88.376021, 41.337444], [-88.376111, 41.337826], [-88.375902, 41.338174], [-88.376223, 41.338461], [-88.378384, 41.338955], [-88.381129, 41.338689], [-88.381772, 41.338787], [-88.383588, 41.340566], [-88.384061, 41.344137], [-88.384559, 41.345515], [-88.384557, 41.34594], [-88.38419, 41.346252], [-88.383719, 41.346105], [-88.380932, 41.343574], [-88.380039, 41.343329], [-88.378853, 41.343372], [-88.377935, 41.343973], [-88.377522, 41.344952], [-88.377876, 41.346154], [-88.377967, 41.347306], [-88.378156, 41.347671], [-88.378653, 41.348105], [-88.379488, 41.348454], [-88.381038, 41.348674], [-88.382332, 41.348636], [-88.384775, 41.348261], [-88.38788, 41.348438], [-88.390469, 41.348103], [-88.39189, 41.348407], [-88.392604, 41.34902], [-88.392684, 41.349619], [-88.392542, 41.350466], [-88.39284, 41.350905], [-88.395731, 41.352147], [-88.397101, 41.352993], [-88.397185, 41.353342], [-88.397061, 41.353683], [-88.39581, 41.354661], [-88.395342, 41.355279], [-88.395152, 41.356146], [-88.395468, 41.3564], [-88.395982, 41.35644], [-88.396888, 41.356139], [-88.397558, 41.356169], [-88.399197, 41.356565], [-88.400243, 41.35723], [-88.400606, 41.357293], [-88.40195, 41.35629], [-88.403438, 41.355584], [-88.404255, 41.355369], [-88.405485, 41.354676], [-88.405841, 41.354398], [-88.40578, 41.354226], [-88.405949, 41.354017], [-88.407241, 41.353661], [-88.407824, 41.353166], [-88.408534, 41.352885], [-88.409535, 41.352947], [-88.410563, 41.352192], [-88.41245, 41.351545], [-88.41682, 41.351656], [-88.420004, 41.350967], [-88.420145, 41.351224], [-88.419663, 41.351832], [-88.419653, 41.352328], [-88.419836, 41.352946], [-88.420369, 41.353785]]]}}, {"type": "Feature", "properties": {"tract_fips": "17063000900"}, "geometry": {"type": "Polygon", "coordinates": [[[-88.341425, 41.228565], [-88.33548, 41.228488], [-88.332393, 41.228737], [-88.322128, 41.229018], [-88.262283, 41.23034], [-88.255081, 41.230347], [-88.245324, 41.238096], [-88.243925, 41.194439], [-88.240889, 41.114383], [-88.28516, 41.11353], [-88.33683, 41.11222], [-88.338858, 41.162687], [-88.33894, 41.163625], [-88.339293, 41.164741], [-88.338977, 41.165693], [-88.339819, 41.188333], [-88.340489, 41.200748], [-88.341425, 41.228565]]]}}, {"type": "Feature", "properties": {"tract_fips": "17089850703"}, "geometry": {"type": "Polygon", "coordinates": [[[-88.601958, 42.066469], [-88.542562, 42.066561], [-88.489783, 42.067025], [-88.46426, 42.066924], [-88.464158, 42.021417], [-88.463699, 42.007346], [-88.463556, 41.992936], [-88.463699, 41.992129], [-88.464192, 41.990956], [-88.465406, 41.989622], [-88.467019, 41.988719], [-88.468199, 41.988373], [-88.474231, 41.987353], [-88.475816, 41.986698], [-88.476567, 41.986151], [-88.477407, 41.985139], [-88.477737, 41.984357], [-88.477872, 41.982765], [-88.488805, 41.982494], [-88.601289, 41.981473], [-88.601958, 42.066469]]]}}, {"type": "Feature", "properties": {"tract_fips": "17089850706"}, "geometry": {"type": "Polygon", "coordinates": [[[-88.588657, 42.15359], [-88.481781, 42.153754], [-88.481747, 42.147857], [-88.477047, 42.147887], [-88.476695, 42.148401], [-88.476169, 42.14874], [-88.470947, 42.150343], [-88.469341, 42.150493], [-88.467392, 42.150237], [-88.467033, 42.147068], [-88.467916, 42.144936], [-88.467839, 42.144573], [-88.467006, 42.143215], [-88.466842, 42.142534], [-88.466896, 42.135316], [-88.466991, 42.134964], [-88.468456, 42.132951], [-88.481661, 42.136259], [-88.481542, 42.123392], [-88.479849, 42.12299], [-88.481678, 42.122604], [-88.48155, 42.120826], [-88.481493, 42.099478], [-88.485505, 42.103029], [-88.487642, 42.105353], [-88.488661, 42.105991], [-88.490388, 42.106461], [-88.497129, 42.106541], [-88.503815, 42.106188], [-88.510451, 42.106446], [-88.554157, 42.106456], [-88.554796, 42.10655], [-88.555553, 42.106904], [-88.558251, 42.109461], [-88.558779, 42.109793], [-88.559673, 42.110058], [-88.588344, 42.110025], [-88.588657, 42.15359]]]}}, {"type": "Feature", "properties": {"tract_fips": "17089850707"}, "geometry": {"type": "Polygon", "coordinates": [[[-88.456999, 42.090521], [-88.456683, 42.091518], [-88.455196, 42.093492], [-88.454626, 42.094694], [-88.454501, 42.095833], [-88.45469, 42.103403], [-88.454363, 42.104439], [-88.453676, 42.10542], [-88.452277, 42.106501], [-88.43501, 42.116861], [-88.433659, 42.118123], [-88.432943, 42.119371], [-88.432671, 42.120946], [-88.4327, 42.153052], [-88.432487, 42.153823], [-88.354416, 42.154], [-88.354685, 42.113528], [-88.35466, 42.095389], [-88.35486, 42.074407], [-88.355163, 42.070486], [-88.355081, 42.066825], [-88.356785, 42.066825], [-88.358625, 42.07749], [-88.358969, 42.078748], [-88.359636, 42.080049], [-88.365299, 42.088915], [-88.367548, 42.088843], [-88.367816, 42.089378], [-88.37017, 42.090254], [-88.372492, 42.090354], [-88.373956, 42.089164], [-88.374015, 42.088906], [-88.379212, 42.088953], [-88.37954, 42.07913], [-88.37449, 42.07757], [-88.374506, 42.069208], [-88.374938, 42.068222], [-88.376216, 42.066748], [-88.376612, 42.065969], [-88.376506, 42.060229], [-88.379423, 42.060965], [-88.402456, 42.065049], [-88.413122, 42.068063], [-88.414854, 42.070236], [-88.416855, 42.075736], [-88.417488, 42.079212], [-88.417954, 42.080063], [-88.42046, 42.082725], [-88.422961, 42.085051], [-88.425336, 42.086531], [-88.427855, 42.087443], [-88.428307, 42.087909], [-88.428484, 42.088697], [-88.456772, 42.088607], [-88.456999, 42.090521]]]}}, {"type": "Feature", "properties": {"tract_fips": "17089850709"}, "geometry": {"type": "Polygon", "coordinates": [[[-88.477823, 41.98388], [-88.477587, 41.984779], [-88.477199, 41.985463], [-88.476242, 41.986425], [-88.475318, 41.986957], [-88.473666, 41.987478], [-88.468199, 41.988373], [-88.467019, 41.988719], [-88.465846, 41.989308], [-88.464492, 41.990513], [-88.46398, 41.991363], [-88.463598, 41.992523], [-88.463699, 42.007346], [-88.464158, 42.021417], [-88.464207, 42.040593], [-88.432625, 42.027741], [-88.43022, 42.026421], [-88.416933, 42.017987], [-88.413858, 42.016593], [-88.399448, 42.012064], [-88.390761, 42.008325], [-88.390263, 42.008374], [-88.387683, 42.007454], [-88.38256, 42.006268], [-88.375967, 42.006439], [-88.375788, 41.984557], [-88.405137, 41.984003], [-88.413643, 41.983697], [-88.438197, 41.983444], [-88.477872, 41.982765], [-88.477823, 41.98388]]]}}, {"type": "Feature", "properties": {"tract_fips": "17089850711"}, "geometry": {"type": "Polygon", "coordinates": [[[-88.46426, 42.066924], [-88.463808, 42.068791], [-88.463285, 42.070005], [-88.457839, 42.079256], [-88.457149, 42.08014], [-88.456249, 42.080908], [-88.455607, 42.081846], [-88.445873, 42.076967], [-88.437358, 42.070146], [-88.435324, 42.068798], [-88.433058, 42.066466], [-88.427113, 42.063201], [-88.425893, 42.063208], [-88.412589, 42.066124], [-88.411466, 42.065966], [-88.413122, 42.068063], [-88.402456, 42.065049], [-88.379423, 42.060965], [-88.376506, 42.060229], [-88.376206, 42.045837], [-88.376258, 42.039843], [-88.376568, 42.032448], [-88.376248, 42.028802], [-88.376219, 42.018401], [-88.375931, 42.012851], [-88.375967, 42.006439], [-88.38256, 42.006268], [-88.387683, 42.007454], [-88.390263, 42.008374], [-88.390761, 42.008325], [-88.399448, 42.012064], [-88.413858, 42.016593], [-88.416933, 42.017987], [-88.43022, 42.026421], [-88.432625, 42.027741], [-88.464207, 42.040593], [-88.46426, 42.066924]]]}}, {"type": "Feature", "properties": {"tract_fips": "17089852403"}, "geometry": {"type": "Polygon", "coordinates": [[[-88.602566, 41.806847], [-88.602358, 41.814113], [-88.601438, 41.893899], [-88.601342, 41.908693], [-88.601474, 41.959479], [-88.601289, 41.981473], [-88.488805, 41.982494], [-88.477872, 41.982765], [-88.47774, 41.949496], [-88.4779, 41.94847], [-88.479492, 41.944901], [-88.479662, 41.943985], [-88.479282, 41.931939], [-88.47886, 41.927708], [-88.478129, 41.925351], [-88.473041, 41.916998], [-88.472545, 41.915674], [-88.472397, 41.913928], [-88.472322, 41.907128], [-88.472398, 41.89593], [-88.488351, 41.895617], [-88.488952, 41.860263], [-88.488648, 41.852032], [-88.488801, 41.850238], [-88.488974, 41.840958], [-88.48946, 41.804911], [-88.488889, 41.734294], [-88.489188, 41.721128], [-88.527583, 41.720587], [-88.53581, 41.72036], [-88.536081, 41.720246], [-88.537457, 41.720381], [-88.561192, 41.719959], [-88.601933, 41.719563], [-88.602205, 41.785861], [-88.602566, 41.806847]]]}}, {"type": "Feature", "properties": {"tract_fips": "17089852408"}, "geometry": {"type": "Polygon", "coordinates": [[[-88.479617, 41.939867], [-88.478258, 41.939386], [-88.476725, 41.939205], [-88.463014, 41.939496], [-88.461239, 41.939297], [-88.446762, 41.935579], [-88.434646, 41.932938], [-88.432128, 41.932725], [-88.428959, 41.932876], [-88.426437, 41.933369], [-88.419293, 41.935946], [-88.417553, 41.936381], [-88.404662, 41.938011], [-88.404596, 41.934288], [-88.403774, 41.934154], [-88.403214, 41.933648], [-88.404063, 41.933055], [-88.404564, 41.932105], [-88.404485, 41.926535], [-88.405029, 41.923472], [-88.404496, 41.919685], [-88.40446, 41.915831], [-88.404803, 41.914587], [-88.408534, 41.908323], [-88.408932, 41.906665], [-88.404781, 41.906409], [-88.384419, 41.904415], [-88.385492, 41.896932], [-88.442861, 41.896162], [-88.472398, 41.89593], [-88.472304, 41.900543], [-88.472424, 41.914962], [-88.473041, 41.916998], [-88.477701, 41.924522], [-88.47869, 41.926922], [-88.479282, 41.931939], [-88.479617, 41.939867]]]}}, {"type": "Feature", "properties": {"tract_fips": "17089854506"}, "geometry": {"type": "Polygon", "coordinates": [[[-88.489386, 41.808469], [-88.488974, 41.840958], [-88.485268, 41.841281], [-88.46793, 41.841391], [-88.468168, 41.842602], [-88.46817, 41.843519], [-88.467932, 41.844477], [-88.464322, 41.852868], [-88.463221, 41.852645], [-88.462278, 41.852752], [-88.458099, 41.854062], [-88.453402, 41.855961], [-88.447414, 41.857308], [-88.446844, 41.855109], [-88.447217, 41.852886], [-88.448214, 41.850033], [-88.448666, 41.848203], [-88.448303, 41.847362], [-88.446696, 41.845558], [-88.446474, 41.84492], [-88.446441, 41.843955], [-88.417986, 41.844132], [-88.400853, 41.847026], [-88.375771, 41.845726], [-88.376032, 41.831911], [-88.376092, 41.814592], [-88.375987, 41.813773], [-88.376107, 41.809888], [-88.386416, 41.809726], [-88.388287, 41.809861], [-88.395314, 41.812052], [-88.396669, 41.812185], [-88.40151, 41.811542], [-88.405768, 41.810051], [-88.407956, 41.809609], [-88.407706, 41.808092], [-88.424961, 41.808961], [-88.428138, 41.802699], [-88.43193, 41.803906], [-88.435479, 41.805359], [-88.447701, 41.805592], [-88.466376, 41.805461], [-88.473685, 41.799773], [-88.480376, 41.807888], [-88.483443, 41.810425], [-88.488717, 41.808475], [-88.489386, 41.808469]]]}}, {"type": "Feature", "properties": {"tract_fips": "17089854508"}, "geometry": {"type": "Polygon", "coordinates": [[[-88.42403, 41.72202], [-88.423971, 41.730593], [-88.420875, 41.731609], [-88.396593, 41.737681], [-88.387981, 41.739422], [-88.385263, 41.74022], [-88.386476, 41.742125], [-88.38729, 41.74294], [-88.389058, 41.746357], [-88.391881, 41.750043], [-88.392073, 41.751489], [-88.390905, 41.75151], [-88.391588, 41.757047], [-88.392405, 41.758745], [-88.391211, 41.766532], [-88.386475, 41.766005], [-88.375701, 41.765281], [-88.375595, 41.757829], [-88.376214, 41.756231], [-88.376323, 41.755425], [-88.376267, 41.754673], [-88.375737, 41.75287], [-88.375688, 41.744395], [-88.37553, 41.743675], [-88.375443, 41.74116], [-88.37532, 41.72261], [-88.42403, 41.72202]]]}}, {"type": "Feature", "properties": {"tract_fips": "17091010100"}, "geometry": {"type": "Polygon", "coordinates": [[[-87.781662, 41.295863], [-87.623798, 41.297163], [-87.625481, 41.295219], [-87.626286, 41.293356], [-87.626516, 41.292298], [-87.626264, 41.276728], [-87.62651, 41.274987], [-87.627519, 41.271579], [-87.62776, 41.269132], [-87.626974, 41.255724], [-87.626891, 41.252058], [-87.627494, 41.244742], [-87.628789, 41.235602], [-87.628614, 41.234312], [-87.628111, 41.233212], [-87.629113, 41.232401], [-87.629515, 41.231409], [-87.631166, 41.221865], [-87.634535, 41.208184], [-87.63606, 41.200879], [-87.663388, 41.200698], [-87.663528, 41.207984], [-87.780107, 41.207256], [-87.781662, 41.295863]]]}}, {"type": "Feature", "properties": {"tract_fips": "17091010201"}, "geometry": {"type": "Polygon", "coordinates": [[[-88.013919, 41.292447], [-87.879753, 41.294617], [-87.830848, 41.295234], [-87.866526, 41.221084], [-87.867011, 41.219605], [-87.867426, 41.217177], [-87.867096, 41.206664], [-87.955554, 41.205933], [-87.955695, 41.214209], [-87.955852, 41.214325], [-87.957319, 41.214302], [-87.957581, 41.214509], [-87.95714, 41.219873], [-87.961173, 41.219816], [-87.961397, 41.219967], [-87.961464, 41.220423], [-87.961699, 41.220524], [-87.973489, 41.220396], [-87.973062, 41.201613], [-87.992538, 41.209566], [-87.994109, 41.209888], [-87.996882, 41.210008], [-87.998602, 41.21028], [-88.000479, 41.210901], [-88.003212, 41.212307], [-88.004533, 41.212702], [-88.012009, 41.212808], [-88.013919, 41.292447]]]}}, {"type": "Feature", "properties": {"tract_fips": "17091010300"}, "geometry": {"type": "Polygon", "coordinates": [[[-88.251501, 41.114218], [-88.240889, 41.114383], [-88.244144, 41.201566], [-88.199122, 41.202365], [-88.128895, 41.203888], [-88.01181, 41.205508], [-88.010713, 41.147873], [-88.010328, 41.117992], [-88.106738, 41.116944], [-88.136594, 41.116316], [-88.136369, 41.115735], [-88.135265, 41.115319], [-88.13476, 41.114965], [-88.134452, 41.114169], [-88.133486, 41.059868], [-88.131935, 40.997777], [-88.134506, 40.997564], [-88.208716, 40.995601], [-88.22824, 40.99564], [-88.2473, 40.99456], [-88.251501, 41.114218]]]}}, {"type": "Feature", "properties": {"tract_fips": "17091010400"}, "geometry": {"type": "Polygon", "coordinates": [[[-88.018299, 41.117938], [-88.010328, 41.117992], [-88.010864, 41.156648], [-88.011891, 41.208191], [-88.010044, 41.208462], [-88.005651, 41.208653], [-87.997826, 41.20806], [-87.996466, 41.207784], [-87.993092, 41.206667], [-87.988928, 41.203814], [-87.986757, 41.202953], [-87.982988, 41.202347], [-87.9813, 41.201862], [-87.975145, 41.197144], [-87.972496, 41.195788], [-87.971704, 41.195186], [-87.970589, 41.193865], [-87.967079, 41.188995], [-87.965852, 41.187066], [-87.96016, 41.181679], [-87.957627, 41.177887], [-87.95427, 41.173524], [-87.949661, 41.166559], [-87.94838, 41.165094], [-87.940353, 41.160196], [-87.936858, 41.157785], [-87.935394, 41.157419], [-87.933245, 41.157532], [-87.928878, 41.157457], [-87.926452, 41.157175], [-87.924742, 41.156755], [-87.922896, 41.155923], [-87.921629, 41.155572], [-87.918562, 41.155748], [-87.917814, 41.155603], [-87.916441, 41.154886], [-87.914717, 41.153001], [-87.912321, 41.150873], [-87.908308, 41.149263], [-87.904371, 41.148881], [-87.902975, 41.149144], [-87.90166, 41.149676], [-87.900794, 41.149764], [-87.899958, 41.149705], [-87.898143, 41.149232], [-87.895688, 41.147829], [-87.894997, 41.147043], [-87.893842, 41.143031], [-87.893032, 41.142187], [-87.889343, 41.139732], [-87.887898, 41.137679], [-87.887643, 41.136332], [-87.887743, 41.135332], [-87.887142, 41.134132], [-87.885839, 41.133234], [-87.888455, 41.133233], [-87.89219, 41.135529], [-87.893435, 41.137228], [-87.894403, 41.136889], [-87.894359, 41.133315], [-87.899336, 41.133192], [-87.904077, 41.133274], [-87.903755, 41.1223], [-87.90871, 41.122271], [-87.908654, 41.118531], [-87.926754, 41.118397], [-87.926721, 41.10509], [-87.907221, 41.105618], [-87.906673, 41.076317], [-87.94561, 41.075318], [-87.960139, 41.074727], [-88.0179, 41.073407], [-88.018299, 41.117938]]]}}, {"type": "Feature", "properties": {"tract_fips": "17091010800"}, "geometry": {"type": "Polygon", "coordinates": [[[-87.780107, 41.207256], [-87.663528, 41.207984], [-87.662621, 41.156898], [-87.656155, 41.156956], [-87.657602, 41.153524], [-87.657295, 41.13533], [-87.657043, 41.135078], [-87.655108, 41.135104], [-87.65483, 41.134961], [-87.654807, 41.127757], [-87.654013, 41.127631], [-87.653218, 41.127278], [-87.652778, 41.127644], [-87.652289, 41.12779], [-87.652741, 41.126891], [-87.652384, 41.126379], [-87.652218, 41.125738], [-87.651942, 41.111997], [-87.651607, 41.111146], [-87.650773, 41.110441], [-87.651235, 41.109967], [-87.651757, 41.109788], [-87.656321, 41.109743], [-87.657129, 41.109404], [-87.656345, 41.065885], [-87.675527, 41.065336], [-87.675823, 41.079949], [-87.723843, 41.078884], [-87.724561, 41.119893], [-87.724894, 41.121577], [-87.725542, 41.123232], [-87.728086, 41.121051], [-87.729446, 41.120156], [-87.731137, 41.119511], [-87.733111, 41.119172], [-87.735152, 41.119212], [-87.739292, 41.119833], [-87.739287, 41.120107], [-87.739772, 41.120173], [-87.747074, 41.120305], [-87.757718, 41.12017], [-87.761872, 41.119679], [-87.768455, 41.119539], [-87.768727, 41.148724], [-87.769414, 41.177915], [-87.779402, 41.177935], [-87.780107, 41.207256]]]}}, {"type": "Feature", "properties": {"tract_fips": "17091010900"}, "geometry": {"type": "Polygon", "coordinates": [[[-87.663388, 41.200698], [-87.63606, 41.200879], [-87.634535, 41.208184], [-87.631166, 41.221865], [-87.629515, 41.231409], [-87.629113, 41.232401], [-87.628111, 41.233212], [-87.628614, 41.234312], [-87.628789, 41.235602], [-87.627494, 41.244742], [-87.626891, 41.252058], [-87.626974, 41.255724], [-87.62776, 41.269132], [-87.627519, 41.271579], [-87.62651, 41.274987], [-87.626264, 41.276728], [-87.626516, 41.292298], [-87.626286, 41.293356], [-87.625481, 41.295219], [-87.623798, 41.297163], [-87.526731, 41.298052], [-87.526502, 41.223827], [-87.526534, 41.164426], [-87.526661, 41.155045], [-87.526471, 41.152456], [-87.526696, 41.149222], [-87.52661, 41.121453], [-87.642446, 41.120542], [-87.642636, 41.127866], [-87.652289, 41.12779], [-87.652778, 41.127644], [-87.653218, 41.127278], [-87.654013, 41.127631], [-87.654807, 41.127757], [-87.65483, 41.134961], [-87.655108, 41.135104], [-87.657043, 41.135078], [-87.657279, 41.135254], [-87.657602, 41.153524], [-87.656155, 41.156956], [-87.662621, 41.156898], [-87.663388, 41.200698]]]}}, {"type": "Feature", "properties": {"tract_fips": "17091011000"}, "geometry": {"type": "Polygon", "coordinates": [[[-87.675228, 41.050823], [-87.656473, 41.051129], [-87.656055, 41.051277], [-87.657129, 41.109404], [-87.656321, 41.109743], [-87.651757, 41.109788], [-87.651235, 41.109967], [-87.650773, 41.110441], [-87.651607, 41.111146], [-87.651942, 41.111997], [-87.652218, 41.125738], [-87.652384, 41.126379], [-87.652741, 41.126891], [-87.652289, 41.12779], [-87.642636, 41.127866], [-87.642446, 41.120542], [-87.52661, 41.121453], [-87.526557, 41.075156], [-87.526323, 41.045441], [-87.526428, 41.024366], [-87.526208, 41.010341], [-87.552047, 41.00994], [-87.614695, 41.008563], [-87.641221, 41.008195], [-87.655458, 41.008244], [-87.655512, 41.008127], [-87.674767, 41.007546], [-87.675228, 41.050823]]]}}, {"type": "Feature", "properties": {"tract_fips": "17091011100"}, "geometry": {"type": "Polygon", "coordinates": [[[-87.771915, 41.034482], [-87.751708, 41.034754], [-87.752107, 41.063276], [-87.753006, 41.064286], [-87.753212, 41.071024], [-87.757111, 41.071008], [-87.757411, 41.078312], [-87.752631, 41.078306], [-87.675823, 41.079949], [-87.675527, 41.065336], [-87.656345, 41.065885], [-87.656055, 41.051277], [-87.656473, 41.051129], [-87.675228, 41.050823], [-87.674767, 41.007546], [-87.732253, 41.006272], [-87.771442, 41.005684], [-87.771915, 41.034482]]]}}, {"type": "Feature", "properties": {"tract_fips": "17091011200"}, "geometry": {"type": "Polygon", "coordinates": [[[-87.849933, 41.04475], [-87.84995, 41.046813], [-87.84968, 41.047353], [-87.84914, 41.047732], [-87.845899, 41.047643], [-87.844937, 41.047791], [-87.843122, 41.048476], [-87.842113, 41.049228], [-87.841167, 41.050457], [-87.840203, 41.052698], [-87.839089, 41.054254], [-87.837186, 41.056367], [-87.835692, 41.057681], [-87.832122, 41.058968], [-87.831633, 41.059288], [-87.831177, 41.059846], [-87.830265, 41.061989], [-87.829995, 41.062428], [-87.829472, 41.062817], [-87.82894, 41.063045], [-87.827477, 41.06318], [-87.82644, 41.063058], [-87.825677, 41.062738], [-87.825128, 41.062067], [-87.824365, 41.061609], [-87.823159, 41.061044], [-87.82174, 41.060815], [-87.82039, 41.061027], [-87.819697, 41.061432], [-87.819478, 41.061746], [-87.819439, 41.062532], [-87.81465, 41.065518], [-87.814639, 41.065832], [-87.813317, 41.067781], [-87.812997, 41.068666], [-87.812766, 41.070322], [-87.812992, 41.071308], [-87.813924, 41.072828], [-87.814565, 41.073385], [-87.815582, 41.073926], [-87.814831, 41.073849], [-87.813048, 41.074679], [-87.812162, 41.074808], [-87.811779, 41.074811], [-87.810332, 41.074192], [-87.80793, 41.074004], [-87.80642, 41.074668], [-87.803944, 41.075055], [-87.799432, 41.077638], [-87.798056, 41.078144], [-87.795949, 41.077989], [-87.794338, 41.077563], [-87.79348, 41.077599], [-87.793382, 41.077176], [-87.792246, 41.077489], [-87.790809, 41.078935], [-87.790354, 41.07874], [-87.790396, 41.078999], [-87.789325, 41.080184], [-87.789191, 41.084088], [-87.788359, 41.086243], [-87.786343, 41.089545], [-87.781283, 41.092747], [-87.776934, 41.097976], [-87.775854, 41.099916], [-87.775005, 41.101034], [-87.770436, 41.105165], [-87.769278, 41.105662], [-87.766473, 41.106059], [-87.763838, 41.107293], [-87.762309, 41.107629], [-87.760045, 41.108518], [-87.758748, 41.109348], [-87.757923, 41.110422], [-87.757082, 41.112168], [-87.756371, 41.112973], [-87.755098, 41.113944], [-87.751663, 41.115834], [-87.750945, 41.116498], [-87.750692, 41.117073], [-87.750938, 41.118774], [-87.75066, 41.120258], [-87.739772, 41.120173], [-87.739287, 41.120107], [-87.739292, 41.119833], [-87.735152, 41.119212], [-87.732657, 41.119212], [-87.730563, 41.119689], [-87.729123, 41.120335], [-87.725542, 41.123232], [-87.724894, 41.121577], [-87.724561, 41.119893], [-87.723843, 41.078884], [-87.757411, 41.078312], [-87.757111, 41.071008], [-87.753212, 41.071024], [-87.753006, 41.064286], [-87.752107, 41.063276], [-87.751708, 41.034754], [-87.771915, 41.034482], [-87.771432, 41.005392], [-87.812299, 41.005063], [-87.813167, 41.00486], [-87.814662, 41.005493], [-87.821469, 41.007428], [-87.824667, 41.008981], [-87.827746, 41.010872], [-87.830072, 41.013883], [-87.833754, 41.016143], [-87.838706, 41.021591], [-87.843525, 41.026178], [-87.844585, 41.02809], [-87.844823, 41.029014], [-87.844906, 41.030297], [-87.844323, 41.033359], [-87.844323, 41.035083], [-87.844569, 41.03574], [-87.846371, 41.038642], [-87.847958, 41.040668], [-87.849578, 41.04374], [-87.849933, 41.04475]]]}}, {"type": "Feature", "properties": {"tract_fips": "17091011400"}, "geometry": {"type": "Polygon", "coordinates": [[[-87.836307, 41.133263], [-87.833645, 41.133227], [-87.830745, 41.133593], [-87.783158, 41.134078], [-87.783147, 41.135381], [-87.78228, 41.137099], [-87.781751, 41.137578], [-87.781199, 41.137752], [-87.777177, 41.137738], [-87.780673, 41.131888], [-87.791141, 41.119087], [-87.797384, 41.117305], [-87.806681, 41.112303], [-87.809642, 41.11029], [-87.811412, 41.107502], [-87.818472, 41.105045], [-87.820903, 41.104539], [-87.823302, 41.102921], [-87.825913, 41.102353], [-87.827768, 41.100949], [-87.828747, 41.100432], [-87.830867, 41.099864], [-87.831322, 41.099938], [-87.831985, 41.100356], [-87.832384, 41.100383], [-87.83344, 41.099232], [-87.834968, 41.099889], [-87.836307, 41.133263]]]}}, {"type": "Feature", "properties": {"tract_fips": "17091012600"}, "geometry": {"type": "Polygon", "coordinates": [[[-88.136594, 41.116316], [-88.106738, 41.116944], [-88.018299, 41.117938], [-88.0179, 41.073407], [-87.960139, 41.074727], [-87.94561, 41.075318], [-87.906673, 41.076317], [-87.906055, 41.046996], [-87.890875, 41.047467], [-87.884083, 41.065321], [-87.883157, 41.067383], [-87.881837, 41.069317], [-87.880114, 41.071221], [-87.878585, 41.07248], [-87.876253, 41.073986], [-87.872886, 41.075484], [-87.8688, 41.076758], [-87.867535, 41.076943], [-87.864917, 41.077159], [-87.854435, 41.077113], [-87.850087, 41.077623], [-87.847029, 41.07841], [-87.843624, 41.079847], [-87.843194, 41.079904], [-87.840901, 41.081318], [-87.839395, 41.082515], [-87.837619, 41.084363], [-87.83599, 41.086831], [-87.835171, 41.088661], [-87.834654, 41.090654], [-87.834469, 41.092298], [-87.834685, 41.097961], [-87.83489, 41.098053], [-87.834968, 41.099889], [-87.834723, 41.099814], [-87.832308, 41.098716], [-87.831228, 41.097906], [-87.83024, 41.096732], [-87.829641, 41.095643], [-87.829438, 41.094901], [-87.829776, 41.090275], [-87.829641, 41.089363], [-87.829202, 41.088215], [-87.828568, 41.087302], [-87.8281, 41.085795], [-87.82699, 41.084563], [-87.824306, 41.082948], [-87.821538, 41.08097], [-87.819488, 41.079045], [-87.818398, 41.078643], [-87.81806, 41.077568], [-87.817885, 41.07602], [-87.817387, 41.075371], [-87.813924, 41.072828], [-87.812992, 41.071308], [-87.812766, 41.070322], [-87.812997, 41.068666], [-87.813317, 41.067781], [-87.814639, 41.065832], [-87.81465, 41.065518], [-87.819439, 41.062532], [-87.819478, 41.061746], [-87.819697, 41.061432], [-87.82039, 41.061027], [-87.82174, 41.060815], [-87.823159, 41.061044], [-87.825128, 41.062067], [-87.825677, 41.062738], [-87.82644, 41.063058], [-87.827477, 41.06318], [-87.82894, 41.063045], [-87.829472, 41.062817], [-87.829995, 41.062428], [-87.830265, 41.061989], [-87.831177, 41.059846], [-87.831633, 41.059288], [-87.832122, 41.058968], [-87.835692, 41.057681], [-87.837186, 41.056367], [-87.839089, 41.054254], [-87.840203, 41.052698], [-87.841167, 41.050457], [-87.842113, 41.049228], [-87.843122, 41.048476], [-87.844937, 41.047791], [-87.845899, 41.047643], [-87.84914, 41.047732], [-87.84968, 41.047353], [-87.84995, 41.046813], [-87.849933, 41.04475], [-87.849578, 41.04374], [-87.847958, 41.040668], [-87.846371, 41.038642], [-87.844569, 41.03574], [-87.844323, 41.035083], [-87.844323, 41.033359], [-87.844906, 41.030297], [-87.844823, 41.029014], [-87.844585, 41.02809], [-87.844032, 41.027029], [-87.842864, 41.025412], [-87.840462, 41.023347], [-87.838706, 41.021591], [-87.833754, 41.016143], [-87.830072, 41.013883], [-87.827746, 41.010872], [-87.826739, 41.010146], [-87.821469, 41.007428], [-87.814662, 41.005493], [-87.813167, 41.00486], [-87.814045, 41.004699], [-87.848042, 41.004332], [-87.883038, 41.003638], [-87.896539, 41.003088], [-87.907406, 41.0028], [-87.908138, 41.002924], [-87.943437, 41.001956], [-87.96334, 41.001028], [-87.982305, 41.000536], [-88.039911, 40.999539], [-88.07435, 40.998624], [-88.114009, 40.998195], [-88.131935, 40.997777], [-88.133486, 41.059868], [-88.134452, 41.114169], [-88.13476, 41.114965], [-88.135265, 41.115319], [-88.136369, 41.115735], [-88.136594, 41.116316]]]}}, {"type": "Feature", "properties": {"tract_fips": "17093890105"}, "geometry": {"type": "Polygon", "coordinates": [[[-88.3098, 41.69069], [-88.29331, 41.69218], [-88.29344, 41.69512], [-88.2938, 41.69572], [-88.29471, 41.697074], [-88.30062, 41.702836], [-88.300896, 41.703574], [-88.301034, 41.704919], [-88.302684, 41.70678], [-88.28599, 41.7159], [-88.280295, 41.719597], [-88.269441, 41.706894], [-88.260812, 41.696061], [-88.260548, 41.679786], [-88.25912, 41.6362], [-88.307784, 41.635668], [-88.307729, 41.644401], [-88.30786, 41.64445], [-88.30892, 41.67788], [-88.30947, 41.68024], [-88.3098, 41.69069]]]}}, {"type": "Feature", "properties": {"tract_fips": "17093890108"}, "geometry": {"type": "Polygon", "coordinates": [[[-88.418944, 41.653789], [-88.418128, 41.655449], [-88.416354, 41.657217], [-88.412031, 41.658061], [-88.409407, 41.659021], [-88.407103, 41.660517], [-88.405791, 41.662529], [-88.404303, 41.667276], [-88.402817, 41.668526], [-88.400646, 41.670014], [-88.398995, 41.670877], [-88.398494, 41.671617], [-88.397982, 41.672034], [-88.396146, 41.67319], [-88.393601, 41.673918], [-88.391097, 41.675095], [-88.389953, 41.675415], [-88.387889, 41.675608], [-88.386136, 41.675488], [-88.383304, 41.67502], [-88.37779, 41.675389], [-88.37693, 41.674], [-88.37668, 41.67212], [-88.36506, 41.67498], [-88.362233, 41.675273], [-88.35923, 41.67515], [-88.35884, 41.668108], [-88.356715, 41.668146], [-88.356404, 41.664325], [-88.356444, 41.660893], [-88.35485, 41.66097], [-88.35339, 41.66134], [-88.35214, 41.66129], [-88.35079, 41.66088], [-88.34877, 41.65983], [-88.3468, 41.65991], [-88.3471, 41.66636], [-88.34485, 41.66626], [-88.34312, 41.66572], [-88.33686, 41.66573], [-88.3363, 41.66601], [-88.33705, 41.66669], [-88.33642, 41.66711], [-88.31353, 41.64695], [-88.31172, 41.64593], [-88.307729, 41.644401], [-88.307784, 41.635668], [-88.350355, 41.63515], [-88.35035, 41.63774], [-88.35846, 41.6377], [-88.35874, 41.63756], [-88.3588, 41.63732], [-88.35904, 41.63729], [-88.36335, 41.63725], [-88.36359, 41.63728], [-88.36382, 41.6376], [-88.365, 41.6376], [-88.36507, 41.63624], [-88.364785, 41.635067], [-88.400295, 41.634716], [-88.417696, 41.634089], [-88.417971, 41.643629], [-88.416823, 41.643841], [-88.415271, 41.644709], [-88.414343, 41.645957], [-88.414543, 41.647693], [-88.415791, 41.649069], [-88.417703, 41.650729], [-88.418904, 41.652229], [-88.418944, 41.653789]]]}}, {"type": "Feature", "properties": {"tract_fips": "17093890501"}, "geometry": {"type": "Polygon", "coordinates": [[[-88.602396, 41.638702], [-88.602341, 41.647525], [-88.59103, 41.6487], [-88.58517, 41.64977], [-88.53956, 41.66179], [-88.531353, 41.663661], [-88.53148, 41.66399], [-88.52828, 41.66471], [-88.52789, 41.66493], [-88.52772, 41.66563], [-88.5275, 41.66583], [-88.528056, 41.666388], [-88.52831, 41.6691], [-88.52881, 41.66956], [-88.52982, 41.66992], [-88.52942, 41.67144], [-88.529516, 41.671741], [-88.52899, 41.67315], [-88.52807, 41.67692], [-88.52767, 41.67777], [-88.52683, 41.6786], [-88.52097, 41.68208], [-88.52006, 41.68288], [-88.51975, 41.68342], [-88.51959, 41.68416], [-88.51954, 41.68987], [-88.546099, 41.68988], [-88.54654, 41.69458], [-88.546727, 41.695262], [-88.54738, 41.69652], [-88.54878, 41.69787], [-88.54735, 41.69816], [-88.54717, 41.69853], [-88.54737, 41.704], [-88.54709, 41.70555], [-88.54782, 41.72018], [-88.537457, 41.720381], [-88.536081, 41.720246], [-88.53581, 41.72036], [-88.527583, 41.720587], [-88.489673, 41.721121], [-88.48754, 41.6438], [-88.487673, 41.640129], [-88.490153, 41.639925], [-88.495025, 41.638941], [-88.496042, 41.638537], [-88.498874, 41.638333], [-88.500074, 41.63853], [-88.503133, 41.63789], [-88.506566, 41.636491], [-88.508474, 41.635961], [-88.513522, 41.635567], [-88.51441, 41.634919], [-88.515471, 41.634601], [-88.517476, 41.634144], [-88.521992, 41.633506], [-88.525761, 41.633396], [-88.527579, 41.633526], [-88.529792, 41.633996], [-88.531959, 41.634021], [-88.536458, 41.633586], [-88.537265, 41.633331], [-88.538745, 41.632174], [-88.539099, 41.631708], [-88.586294, 41.6316], [-88.60224, 41.631389], [-88.602396, 41.638702]]]}}, {"type": "Feature", "properties": {"tract_fips": "17093890602"}, "geometry": {"type": "Polygon", "coordinates": [[[-88.60224, 41.631389], [-88.586294, 41.6316], [-88.539099, 41.631708], [-88.538745, 41.632174], [-88.537265, 41.633331], [-88.536458, 41.633586], [-88.531959, 41.634021], [-88.529792, 41.633996], [-88.527579, 41.633526], [-88.525761, 41.633396], [-88.521992, 41.633506], [-88.517476, 41.634144], [-88.515471, 41.634601], [-88.51441, 41.634919], [-88.513522, 41.635567], [-88.508474, 41.635961], [-88.506566, 41.636491], [-88.503133, 41.63789], [-88.500074, 41.63853], [-88.498874, 41.638333], [-88.496042, 41.638537], [-88.495025, 41.638941], [-88.490153, 41.639925], [-88.487673, 41.640129], [-88.487089, 41.635651], [-88.486793, 41.631927], [-88.486673, 41.62622], [-88.49781, 41.62226], [-88.49751, 41.61695], [-88.4959, 41.60988], [-88.495617, 41.601482], [-88.49318, 41.60275], [-88.49139, 41.60348], [-88.48413, 41.60552], [-88.48015, 41.60716], [-88.47752, 41.60871], [-88.46968, 41.61437], [-88.46643, 41.61609], [-88.46338, 41.61704], [-88.45536, 41.61873], [-88.45353, 41.619], [-88.44786, 41.61941], [-88.44432, 41.62002], [-88.425123, 41.625181], [-88.42082, 41.62668], [-88.41193, 41.63076], [-88.40961, 41.63246], [-88.407846, 41.63448], [-88.393383, 41.634826], [-88.369369, 41.63502], [-88.36859, 41.61542], [-88.368552, 41.613345], [-88.368742, 41.61164], [-88.368438, 41.610514], [-88.367867, 41.592588], [-88.368071, 41.591766], [-88.367882, 41.584245], [-88.36723, 41.57714], [-88.366278, 41.54803], [-88.47991, 41.54509], [-88.50308, 41.54499], [-88.551528, 41.544422], [-88.5709, 41.54458], [-88.599007, 41.544263], [-88.599425, 41.555594], [-88.599303, 41.555593], [-88.59945, 41.55618], [-88.59938, 41.55697], [-88.599895, 41.566735], [-88.600046, 41.568985], [-88.600463, 41.569513], [-88.600634, 41.5703], [-88.600214, 41.575261], [-88.60224, 41.631389]]]}}, {"type": "Feature", "properties": {"tract_fips": "17093890702"}, "geometry": {"type": "Polygon", "coordinates": [[[-88.369369, 41.63502], [-88.364785, 41.635067], [-88.36507, 41.63624], [-88.365, 41.6376], [-88.36382, 41.6376], [-88.36359, 41.63728], [-88.36335, 41.63725], [-88.35904, 41.63729], [-88.3588, 41.63732], [-88.35874, 41.63756], [-88.35846, 41.6377], [-88.35035, 41.63774], [-88.350355, 41.63515], [-88.25912, 41.6362], [-88.255995, 41.564534], [-88.275258, 41.564131], [-88.2747, 41.54971], [-88.313484, 41.548895], [-88.366278, 41.54803], [-88.36723, 41.57714], [-88.367882, 41.584245], [-88.368071, 41.591766], [-88.367867, 41.592588], [-88.368438, 41.610514], [-88.368742, 41.61164], [-88.368552, 41.613345], [-88.36859, 41.61542], [-88.369369, 41.63502]]]}}, {"type": "Feature", "properties": {"tract_fips": "17093890703"}, "geometry": {"type": "Polygon", "coordinates": [[[-88.599007, 41.544263], [-88.5709, 41.54458], [-88.551528, 41.544422], [-88.50308, 41.54499], [-88.47991, 41.54509], [-88.36899, 41.54797], [-88.313484, 41.548895], [-88.255348, 41.550089], [-88.252231, 41.463066], [-88.254972, 41.462768], [-88.319918, 41.461132], [-88.382191, 41.46024], [-88.481681, 41.457903], [-88.556237, 41.457575], [-88.595961, 41.457129], [-88.596482, 41.47528], [-88.599007, 41.544263]]]}}, {"type": "Feature", "properties": {"tract_fips": "17111870103"}, "geometry": {"type": "Polygon", "coordinates": [[[-88.472044, 42.417012], [-88.471622, 42.494618], [-88.461829, 42.494798], [-88.431633, 42.494669], [-88.422241, 42.494495], [-88.421892, 42.494669], [-88.389994, 42.494516], [-88.33491, 42.494618], [-88.335272, 42.494033], [-88.335149, 42.475761], [-88.335256, 42.47574], [-88.335314, 42.440029], [-88.33542, 42.439482], [-88.337034, 42.436957], [-88.33771, 42.434946], [-88.340067, 42.430969], [-88.340266, 42.42197], [-88.340598, 42.421785], [-88.343931, 42.421746], [-88.344351, 42.42162], [-88.345887, 42.418234], [-88.345924, 42.417983], [-88.345538, 42.4173], [-88.343064, 42.414544], [-88.471914, 42.414247], [-88.472044, 42.417012]]]}}, {"type": "Feature", "properties": {"tract_fips": "17111870104"}, "geometry": {"type": "Polygon", "coordinates": [[[-88.345924, 42.418046], [-88.344351, 42.42162], [-88.343931, 42.421746], [-88.340598, 42.421785], [-88.340266, 42.42197], [-88.340067, 42.430969], [-88.337719, 42.434929], [-88.337034, 42.436957], [-88.33534, 42.439809], [-88.335256, 42.47574], [-88.335149, 42.475761], [-88.335272, 42.494033], [-88.33491, 42.494618], [-88.303192, 42.494618], [-88.279549, 42.494827], [-88.272663, 42.494818], [-88.270096, 42.494677], [-88.257027, 42.494889], [-88.23789, 42.494895], [-88.23791, 42.480627], [-88.247637, 42.480557], [-88.247483, 42.444323], [-88.252639, 42.444251], [-88.257506, 42.444934], [-88.264258, 42.445489], [-88.272463, 42.442775], [-88.274657, 42.441006], [-88.276689, 42.440692], [-88.276088, 42.439646], [-88.276698, 42.438989], [-88.27677, 42.414929], [-88.340422, 42.414556], [-88.34043, 42.414173], [-88.343064, 42.414544], [-88.345538, 42.4173], [-88.345924, 42.418046]]]}}, {"type": "Feature", "properties": {"tract_fips": "17111870106"}, "geometry": {"type": "Polygon", "coordinates": [[[-88.247483, 42.444323], [-88.247637, 42.480557], [-88.23791, 42.480627], [-88.23789, 42.494895], [-88.218855, 42.495029], [-88.218769, 42.480746], [-88.218882, 42.480745], [-88.218697, 42.473517], [-88.206974, 42.473555], [-88.210673, 42.464419], [-88.213654, 42.449763], [-88.219494, 42.450308], [-88.219532, 42.449316], [-88.219869, 42.447944], [-88.220228, 42.447318], [-88.22142, 42.44661], [-88.223257, 42.446449], [-88.224184, 42.446099], [-88.224723, 42.445548], [-88.225072, 42.444358], [-88.226226, 42.444489], [-88.227059, 42.441613], [-88.238378, 42.44438], [-88.240053, 42.444503], [-88.247483, 42.444323]]]}}, {"type": "Feature", "properties": {"tract_fips": "17111870200"}, "geometry": {"type": "Polygon", "coordinates": [[[-88.705941, 42.414989], [-88.656748, 42.415023], [-88.613464, 42.414744], [-88.58904, 42.414816], [-88.589388, 42.487355], [-88.589872, 42.495027], [-88.525709, 42.49492], [-88.500098, 42.494776], [-88.497798, 42.494618], [-88.471622, 42.494618], [-88.472053, 42.416152], [-88.471908, 42.414154], [-88.472094, 42.398271], [-88.471849, 42.397869], [-88.471836, 42.397113], [-88.472111, 42.39569], [-88.472242, 42.381532], [-88.4723, 42.327303], [-88.585887, 42.327759], [-88.70561, 42.327882], [-88.705748, 42.39631], [-88.705941, 42.414989]]]}}, {"type": "Feature", "properties": {"tract_fips": "17111870403"}, "geometry": {"type": "Polygon", "coordinates": [[[-88.472297, 42.364713], [-88.472111, 42.39569], [-88.471836, 42.397113], [-88.471849, 42.397869], [-88.472094, 42.398271], [-88.471914, 42.414247], [-88.355285, 42.41447], [-88.355498, 42.379233], [-88.370163, 42.379271], [-88.370065, 42.353082], [-88.380891, 42.352722], [-88.388228, 42.353541], [-88.394429, 42.353763], [-88.394522, 42.378105], [-88.413936, 42.37802], [-88.413906, 42.3708], [-88.423615, 42.370665], [-88.423676, 42.369721], [-88.423831, 42.369436], [-88.427384, 42.36743], [-88.428511, 42.366963], [-88.428526, 42.360142], [-88.435, 42.360434], [-88.44309, 42.360412], [-88.44779, 42.36015], [-88.453168, 42.360563], [-88.455219, 42.360976], [-88.460697, 42.362538], [-88.472297, 42.364713]]]}}, {"type": "Feature", "properties": {"tract_fips": "17111870404"}, "geometry": {"type": "Polygon", "coordinates": [[[-88.4723, 42.327303], [-88.472297, 42.364713], [-88.461001, 42.362603], [-88.455219, 42.360976], [-88.451987, 42.360413], [-88.447275, 42.360144], [-88.44309, 42.360412], [-88.434254, 42.360427], [-88.428526, 42.360142], [-88.428511, 42.366963], [-88.427384, 42.36743], [-88.423831, 42.369436], [-88.423676, 42.369721], [-88.423615, 42.370665], [-88.413906, 42.3708], [-88.413936, 42.37802], [-88.394522, 42.378105], [-88.394429, 42.353763], [-88.388228, 42.353541], [-88.380891, 42.352722], [-88.370065, 42.353082], [-88.370163, 42.379271], [-88.355498, 42.379233], [-88.355452, 42.370641], [-88.355248, 42.370628], [-88.355444, 42.356442], [-88.355262, 42.327715], [-88.367228, 42.327854], [-88.371024, 42.328127], [-88.387402, 42.328171], [-88.387395, 42.327617], [-88.413861, 42.327521], [-88.413908, 42.334732], [-88.428466, 42.334762], [-88.4285, 42.3419], [-88.443229, 42.341876], [-88.443192, 42.337859], [-88.44796, 42.337705], [-88.447986, 42.335014], [-88.448985, 42.334955], [-88.448969, 42.335682], [-88.45122, 42.335796], [-88.451405, 42.336033], [-88.451474, 42.337076], [-88.452344, 42.337165], [-88.452386, 42.335096], [-88.452736, 42.335096], [-88.452477, 42.334383], [-88.45226, 42.330495], [-88.45288, 42.329959], [-88.452871, 42.329086], [-88.453969, 42.329084], [-88.453971, 42.327305], [-88.4723, 42.327303]]]}}, {"type": "Feature", "properties": {"tract_fips": "17111870501"}, "geometry": {"type": "Polygon", "coordinates": [[[-88.355443, 42.35658], [-88.345421, 42.356575], [-88.345269, 42.385548], [-88.340385, 42.385574], [-88.340389, 42.390227], [-88.337886, 42.390227], [-88.337871, 42.397474], [-88.34039, 42.39746], [-88.340412, 42.401483], [-88.336021, 42.401517], [-88.336017, 42.403175], [-88.334481, 42.404845], [-88.325649, 42.40035], [-88.31026, 42.394843], [-88.300015, 42.392825], [-88.297262, 42.392066], [-88.303255, 42.380229], [-88.304065, 42.379063], [-88.306166, 42.376666], [-88.306464, 42.350098], [-88.307125, 42.349544], [-88.311735, 42.347549], [-88.315288, 42.347345], [-88.31591, 42.347043], [-88.31621, 42.346603], [-88.316148, 42.339116], [-88.316363, 42.327902], [-88.355262, 42.327715], [-88.355443, 42.35658]]]}}, {"type": "Feature", "properties": {"tract_fips": "17111870702"}, "geometry": {"type": "Polygon", "coordinates": [[[-88.260906, 42.345488], [-88.259322, 42.348378], [-88.258387, 42.349632], [-88.255913, 42.351509], [-88.252286, 42.355408], [-88.249334, 42.357678], [-88.248513, 42.358975], [-88.247989, 42.360536], [-88.24702, 42.361937], [-88.244372, 42.36377], [-88.243771, 42.364376], [-88.242434, 42.367248], [-88.242059, 42.369012], [-88.243718, 42.371358], [-88.242017, 42.372829], [-88.239931, 42.373937], [-88.238058, 42.375675], [-88.236167, 42.377992], [-88.231375, 42.380824], [-88.227708, 42.382629], [-88.222857, 42.384744], [-88.222256, 42.385607], [-88.221212, 42.386173], [-88.220913, 42.386725], [-88.218949, 42.38776], [-88.213714, 42.392171], [-88.211515, 42.393649], [-88.209291, 42.394936], [-88.207814, 42.39555], [-88.207468, 42.39586], [-88.20327, 42.397197], [-88.200364, 42.397277], [-88.198804, 42.396642], [-88.198447, 42.357699], [-88.198488, 42.341241], [-88.198607, 42.339956], [-88.198616, 42.329474], [-88.19875, 42.328611], [-88.200094, 42.328721], [-88.226697, 42.328727], [-88.252285, 42.328501], [-88.252073, 42.33074], [-88.252462, 42.333081], [-88.252343, 42.333969], [-88.251781, 42.335224], [-88.251764, 42.336795], [-88.252609, 42.337757], [-88.258359, 42.341231], [-88.259019, 42.341971], [-88.260595, 42.343175], [-88.260873, 42.344399], [-88.260906, 42.345488]]]}}, {"type": "Feature", "properties": {"tract_fips": "17111870703"}, "geometry": {"type": "Polygon", "coordinates": [[[-88.340422, 42.414556], [-88.27677, 42.414929], [-88.237185, 42.415465], [-88.221102, 42.415512], [-88.2221, 42.40797], [-88.225053, 42.39456], [-88.228127, 42.390267], [-88.223742, 42.390329], [-88.223204, 42.389538], [-88.22317, 42.387141], [-88.22246, 42.387043], [-88.222694, 42.38586], [-88.222256, 42.385607], [-88.222857, 42.384744], [-88.227708, 42.382629], [-88.231375, 42.380824], [-88.235546, 42.378458], [-88.236167, 42.377992], [-88.237171, 42.376655], [-88.238787, 42.378033], [-88.242067, 42.38029], [-88.243422, 42.38026], [-88.252595, 42.379139], [-88.269647, 42.378821], [-88.27071, 42.379934], [-88.277828, 42.384963], [-88.279851, 42.386287], [-88.281778, 42.387225], [-88.287815, 42.389301], [-88.289766, 42.390287], [-88.290605, 42.39013], [-88.299491, 42.392702], [-88.310075, 42.394783], [-88.325417, 42.400255], [-88.330569, 42.402771], [-88.335848, 42.405573], [-88.336333, 42.405971], [-88.336627, 42.406525], [-88.337762, 42.412346], [-88.338479, 42.413147], [-88.34043, 42.414173], [-88.340422, 42.414556]]]}}, {"type": "Feature", "properties": {"tract_fips": "17111870809"}, "geometry": {"type": "Polygon", "coordinates": [[[-88.287048, 42.296839], [-88.286793, 42.298935], [-88.286135, 42.300608], [-88.277483, 42.313761], [-88.274641, 42.319946], [-88.274202, 42.322222], [-88.274334, 42.328278], [-88.252285, 42.328501], [-88.252308, 42.327856], [-88.251698, 42.326204], [-88.251717, 42.323824], [-88.251808, 42.323401], [-88.252235, 42.322832], [-88.252405, 42.320873], [-88.253508, 42.318738], [-88.253881, 42.317557], [-88.253612, 42.315871], [-88.253761, 42.313879], [-88.253258, 42.31299], [-88.252221, 42.312013], [-88.253051, 42.311677], [-88.253336, 42.311311], [-88.252887, 42.309337], [-88.253653, 42.308571], [-88.254379, 42.307324], [-88.255491, 42.306849], [-88.267518, 42.306792], [-88.267974, 42.303191], [-88.26699, 42.300727], [-88.261078, 42.288304], [-88.260936, 42.286923], [-88.261233, 42.278951], [-88.262592, 42.275589], [-88.257782, 42.274236], [-88.257404, 42.263493], [-88.257337, 42.252447], [-88.250406, 42.25248], [-88.25049, 42.245801], [-88.250766, 42.245129], [-88.251817, 42.244608], [-88.252737, 42.243442], [-88.25277, 42.241546], [-88.286649, 42.241371], [-88.287048, 42.296839]]]}}, {"type": "Feature", "properties": {"tract_fips": "17111870811"}, "geometry": {"type": "Polygon", "coordinates": [[[-88.253881, 42.317557], [-88.253508, 42.318738], [-88.252405, 42.320873], [-88.252235, 42.322832], [-88.251808, 42.323401], [-88.251717, 42.323824], [-88.251698, 42.326204], [-88.252308, 42.327856], [-88.252285, 42.328501], [-88.226697, 42.328727], [-88.200094, 42.328721], [-88.19875, 42.328611], [-88.198829, 42.321033], [-88.199024, 42.31774], [-88.198807, 42.314169], [-88.198855, 42.306327], [-88.198462, 42.272285], [-88.199829, 42.272723], [-88.200926, 42.273476], [-88.207135, 42.280961], [-88.207942, 42.281624], [-88.209095, 42.282132], [-88.210862, 42.282347], [-88.221451, 42.281853], [-88.224257, 42.2811], [-88.226791, 42.27973], [-88.227443, 42.280696], [-88.228527, 42.283331], [-88.228583, 42.284894], [-88.22992, 42.287317], [-88.231154, 42.289052], [-88.231436, 42.290056], [-88.233501, 42.292261], [-88.235094, 42.293587], [-88.236842, 42.294407], [-88.237785, 42.295249], [-88.240597, 42.298296], [-88.242815, 42.299273], [-88.243386, 42.299677], [-88.24362, 42.300536], [-88.24321, 42.301587], [-88.243155, 42.302793], [-88.243438, 42.30384], [-88.244987, 42.304549], [-88.248001, 42.305213], [-88.249815, 42.306502], [-88.250296, 42.307185], [-88.251231, 42.307834], [-88.251983, 42.309762], [-88.25191, 42.310433], [-88.251467, 42.311008], [-88.252105, 42.311929], [-88.253258, 42.31299], [-88.253761, 42.313879], [-88.253612, 42.315871], [-88.253881, 42.317557]]]}}, {"type": "Feature", "properties": {"tract_fips": "17111870813"}, "geometry": {"type": "Polygon", "coordinates": [[[-88.333525, 42.269077], [-88.330724, 42.269201], [-88.329554, 42.269427], [-88.326946, 42.269232], [-88.326626, 42.269016], [-88.326528, 42.268749], [-88.326505, 42.26759], [-88.326772, 42.26684], [-88.325089, 42.265989], [-88.32479, 42.265541], [-88.324755, 42.265084], [-88.322773, 42.265122], [-88.321752, 42.265504], [-88.320789, 42.265545], [-88.320951, 42.290398], [-88.320699, 42.291263], [-88.320235, 42.292013], [-88.31731, 42.294376], [-88.316639, 42.295277], [-88.316273, 42.296116], [-88.316116, 42.296983], [-88.316155, 42.305095], [-88.31573, 42.306979], [-88.315058, 42.308202], [-88.314356, 42.309046], [-88.302159, 42.320708], [-88.295536, 42.32806], [-88.274334, 42.328278], [-88.274202, 42.322222], [-88.27444, 42.320628], [-88.274893, 42.319337], [-88.277483, 42.313761], [-88.285718, 42.301331], [-88.286793, 42.298935], [-88.287048, 42.296839], [-88.286804, 42.272251], [-88.290764, 42.272245], [-88.292107, 42.272497], [-88.296549, 42.27175], [-88.296401, 42.266657], [-88.299877, 42.266564], [-88.302245, 42.266161], [-88.306593, 42.263231], [-88.308182, 42.263004], [-88.33326, 42.262597], [-88.333364, 42.26586], [-88.33239, 42.266124], [-88.332992, 42.267675], [-88.333496, 42.268298], [-88.333525, 42.269077]]]}}, {"type": "Feature", "properties": {"tract_fips": "17111870906"}, "geometry": {"type": "Polygon", "coordinates": [[[-88.472216, 42.298374], [-88.45421, 42.298388], [-88.452652, 42.297939], [-88.451623, 42.297954], [-88.445961, 42.296907], [-88.445182, 42.296496], [-88.442655, 42.294311], [-88.438193, 42.295314], [-88.437152, 42.295366], [-88.43378, 42.29476], [-88.43362, 42.294566], [-88.43362, 42.294145], [-88.433834, 42.29361], [-88.433667, 42.293454], [-88.433207, 42.293452], [-88.433215, 42.29488], [-88.423804, 42.293133], [-88.419601, 42.29165], [-88.416817, 42.290244], [-88.41561, 42.289441], [-88.413582, 42.287792], [-88.410307, 42.28413], [-88.404599, 42.279219], [-88.402771, 42.277936], [-88.40172, 42.277563], [-88.386936, 42.275098], [-88.386607, 42.275883], [-88.386674, 42.276559], [-88.389018, 42.280998], [-88.388991, 42.281258], [-88.388295, 42.282062], [-88.389229, 42.283207], [-88.38926, 42.29026], [-88.373205, 42.286271], [-88.373641, 42.287059], [-88.373669, 42.287784], [-88.372238, 42.293845], [-88.365462, 42.294423], [-88.36198, 42.294913], [-88.355162, 42.294926], [-88.355237, 42.268015], [-88.355116, 42.266621], [-88.355054, 42.240752], [-88.374352, 42.240831], [-88.403652, 42.240634], [-88.47191, 42.24053], [-88.471902, 42.261932], [-88.472216, 42.298374]]]}}, {"type": "Feature", "properties": {"tract_fips": "17111871003"}, "geometry": {"type": "Polygon", "coordinates": [[[-88.705591, 42.26977], [-88.70561, 42.327882], [-88.588677, 42.327758], [-88.588952, 42.255125], [-88.559832, 42.255125], [-88.559784, 42.241084], [-88.559834, 42.240635], [-88.560055, 42.2404], [-88.560118, 42.238351], [-88.608497, 42.251091], [-88.608504, 42.248315], [-88.633246, 42.249484], [-88.70541, 42.252438], [-88.705591, 42.26977]]]}}, {"type": "Feature", "properties": {"tract_fips": "17111871004"}, "geometry": {"type": "Polygon", "coordinates": [[[-88.705683, 42.183613], [-88.705395, 42.221279], [-88.70541, 42.252438], [-88.633246, 42.249484], [-88.608504, 42.248315], [-88.608497, 42.251091], [-88.560118, 42.238351], [-88.559993, 42.221835], [-88.560971, 42.219854], [-88.561818, 42.218609], [-88.563491, 42.218385], [-88.564908, 42.217385], [-88.56969, 42.215418], [-88.569685, 42.202422], [-88.569788, 42.202198], [-88.570135, 42.202005], [-88.578507, 42.200524], [-88.580869, 42.199607], [-88.592609, 42.194253], [-88.598644, 42.193838], [-88.59858, 42.182459], [-88.593796, 42.182385], [-88.593519, 42.153722], [-88.593284, 42.153555], [-88.617662, 42.15341], [-88.705585, 42.153537], [-88.705545, 42.181913], [-88.705683, 42.183613]]]}}, {"type": "Feature", "properties": {"tract_fips": "17111871209"}, "geometry": {"type": "Polygon", "coordinates": [[[-88.349837, 42.204457], [-88.336513, 42.204498], [-88.336546, 42.205567], [-88.335758, 42.206776], [-88.337035, 42.207335], [-88.33762, 42.207916], [-88.338393, 42.211782], [-88.336053, 42.212103], [-88.326388, 42.212096], [-88.322786, 42.21293], [-88.320021, 42.21251], [-88.315727, 42.212663], [-88.315634, 42.205736], [-88.315323, 42.204202], [-88.307492, 42.190911], [-88.308646, 42.190473], [-88.311613, 42.18782], [-88.31231, 42.187526], [-88.316266, 42.18751], [-88.316231, 42.189574], [-88.323735, 42.189713], [-88.323768, 42.187624], [-88.33029, 42.187564], [-88.330397, 42.19023], [-88.335532, 42.19035], [-88.335541, 42.194358], [-88.337701, 42.194153], [-88.33952, 42.196429], [-88.339394, 42.196604], [-88.339483, 42.197082], [-88.33986, 42.197148], [-88.339963, 42.197581], [-88.340605, 42.197554], [-88.341735, 42.198909], [-88.342275, 42.199173], [-88.342312, 42.199551], [-88.342895, 42.200572], [-88.345066, 42.200676], [-88.345908, 42.201159], [-88.346278, 42.2019], [-88.345828, 42.202921], [-88.346751, 42.203892], [-88.346951, 42.20404], [-88.349836, 42.204056], [-88.349837, 42.204457]]]}}, {"type": "Feature", "properties": {"tract_fips": "17111871311"}, "geometry": {"type": "Polygon", "coordinates": [[[-88.316541, 42.216148], [-88.316305, 42.216758], [-88.28984, 42.193557], [-88.288495, 42.192598], [-88.286532, 42.191687], [-88.286488, 42.190121], [-88.270172, 42.190193], [-88.270438, 42.186945], [-88.270769, 42.186076], [-88.271755, 42.185022], [-88.275235, 42.18246], [-88.272941, 42.180848], [-88.273183, 42.180257], [-88.27225, 42.179249], [-88.270072, 42.178648], [-88.273343, 42.176483], [-88.277371, 42.174635], [-88.277268, 42.173976], [-88.277893, 42.1738], [-88.27804, 42.173448], [-88.278626, 42.172946], [-88.278756, 42.172174], [-88.281043, 42.171174], [-88.281836, 42.170654], [-88.283582, 42.170197], [-88.286047, 42.169188], [-88.288439, 42.167616], [-88.289891, 42.165937], [-88.292023, 42.167227], [-88.295159, 42.16439], [-88.295589, 42.163781], [-88.296214, 42.163846], [-88.296743, 42.163602], [-88.297306, 42.162344], [-88.297627, 42.162048], [-88.298164, 42.161867], [-88.299294, 42.162048], [-88.300133, 42.162951], [-88.301725, 42.164094], [-88.302462, 42.164957], [-88.303631, 42.166901], [-88.304843, 42.167985], [-88.306181, 42.168507], [-88.308588, 42.168581], [-88.308724, 42.169996], [-88.309116, 42.170528], [-88.30966, 42.170901], [-88.310705, 42.171394], [-88.312088, 42.171737], [-88.315903, 42.171825], [-88.315901, 42.174566], [-88.316329, 42.176647], [-88.314616, 42.176639], [-88.307221, 42.17594], [-88.30579, 42.175559], [-88.305791, 42.175676], [-88.305974, 42.176518], [-88.306957, 42.177772], [-88.307197, 42.178504], [-88.306114, 42.181227], [-88.306028, 42.186977], [-88.306135, 42.187826], [-88.307318, 42.190621], [-88.314866, 42.20328], [-88.315417, 42.204456], [-88.315634, 42.205736], [-88.315743, 42.213611], [-88.316541, 42.216148]]]}}, {"type": "Feature", "properties": {"tract_fips": "17111871501"}, "geometry": {"type": "Polygon", "coordinates": [[[-88.598644, 42.193838], [-88.592609, 42.194253], [-88.580869, 42.199607], [-88.578236, 42.200618], [-88.570032, 42.202036], [-88.569685, 42.202422], [-88.569701, 42.204101], [-88.550225, 42.204215], [-88.548657, 42.20404], [-88.528354, 42.19909], [-88.521262, 42.197529], [-88.508236, 42.193103], [-88.505905, 42.192778], [-88.498012, 42.192604], [-88.494411, 42.192257], [-88.491303, 42.191667], [-88.483596, 42.189531], [-88.482279, 42.188933], [-88.481074, 42.188146], [-88.475902, 42.182636], [-88.474704, 42.181715], [-88.471979, 42.180083], [-88.472038, 42.168235], [-88.47272, 42.166594], [-88.466191, 42.165695], [-88.456485, 42.165718], [-88.456516, 42.168228], [-88.428129, 42.168333], [-88.429166, 42.159721], [-88.429643, 42.158331], [-88.431728, 42.155495], [-88.432487, 42.153823], [-88.439627, 42.153746], [-88.440315, 42.153872], [-88.449243, 42.153924], [-88.471914, 42.153748], [-88.593359, 42.153569], [-88.593519, 42.153722], [-88.593796, 42.182385], [-88.59858, 42.182459], [-88.598644, 42.193838]]]}}, {"type": "Feature", "properties": {"tract_fips": "17111871502"}, "geometry": {"type": "Polygon", "coordinates": [[[-88.588952, 42.255163], [-88.588677, 42.327758], [-88.4723, 42.327303], [-88.471902, 42.261932], [-88.47191, 42.24053], [-88.422564, 42.240637], [-88.422404, 42.20934], [-88.422683, 42.199665], [-88.422231, 42.184228], [-88.422516, 42.183092], [-88.423006, 42.182247], [-88.42628, 42.178993], [-88.42703, 42.177754], [-88.427252, 42.176735], [-88.427301, 42.17378], [-88.428129, 42.168333], [-88.456516, 42.168228], [-88.456485, 42.165718], [-88.466191, 42.165695], [-88.47272, 42.166594], [-88.472038, 42.168235], [-88.471979, 42.180083], [-88.475675, 42.182446], [-88.480961, 42.188053], [-88.483226, 42.189389], [-88.491303, 42.191667], [-88.494411, 42.192257], [-88.498012, 42.192604], [-88.505905, 42.192778], [-88.508236, 42.193103], [-88.521262, 42.197529], [-88.528354, 42.19909], [-88.548999, 42.204107], [-88.550225, 42.204215], [-88.569701, 42.204101], [-88.56969, 42.215418], [-88.564908, 42.217385], [-88.563491, 42.218385], [-88.561818, 42.218609], [-88.560971, 42.219854], [-88.559962, 42.221971], [-88.56013, 42.237974], [-88.560055, 42.2404], [-88.559834, 42.240635], [-88.559784, 42.241084], [-88.559832, 42.255125], [-88.588952, 42.255163]]]}}, {"type": "Feature", "properties": {"tract_fips": "17197881112"}, "geometry": {"type": "Polygon", "coordinates": [[[-88.023596, 41.513662], [-88.004521, 41.514053], [-88.004406, 41.511458], [-87.985103, 41.511831], [-87.985085, 41.510705], [-87.985358, 41.509907], [-87.985146, 41.504495], [-87.96256, 41.504902], [-87.962545, 41.50312], [-87.960742, 41.496656], [-87.960491, 41.495155], [-87.960341, 41.489631], [-87.960054, 41.486525], [-87.959793, 41.477234], [-87.960457, 41.474508], [-87.962588, 41.468653], [-87.983519, 41.468322], [-87.984332, 41.491904], [-88.022876, 41.491408], [-88.023596, 41.513662]]]}}, {"type": "Feature", "properties": {"tract_fips": "17197881202"}, "geometry": {"type": "Polygon", "coordinates": [[[-88.04366, 41.54111], [-88.042441, 41.541628], [-88.03854, 41.54262], [-88.028439, 41.547028], [-88.02716, 41.54721], [-88.024706, 41.547261], [-88.024162, 41.529836], [-88.02742, 41.530752], [-88.030454, 41.531053], [-88.033371, 41.53076], [-88.036355, 41.52985], [-88.037968, 41.529993], [-88.03933, 41.529824], [-88.039396, 41.532238], [-88.035323, 41.532303], [-88.03544, 41.533458], [-88.033837, 41.533483], [-88.033857, 41.534127], [-88.034451, 41.534122], [-88.034512, 41.536832], [-88.041152, 41.536662], [-88.041193, 41.538018], [-88.04355, 41.53795], [-88.04366, 41.54111]]]}}, {"type": "Feature", "properties": {"tract_fips": "17197883304"}, "geometry": {"type": "Polygon", "coordinates": [[[-88.133141, 41.334709], [-88.127449, 41.33487], [-88.127841, 41.345073], [-88.127299, 41.345805], [-88.126382, 41.34605], [-88.118363, 41.346206], [-88.114384, 41.345929], [-88.11449, 41.348051], [-88.103962, 41.352317], [-88.101675, 41.354925], [-88.095615, 41.352325], [-88.095983, 41.351252], [-88.095384, 41.349767], [-88.095277, 41.346056], [-88.082374, 41.346212], [-88.075873, 41.343445], [-88.075576, 41.335904], [-88.055911, 41.336407], [-88.05563, 41.33627], [-88.055582, 41.335725], [-88.045806, 41.335835], [-88.0326, 41.350023], [-88.031662, 41.350547], [-88.030538, 41.35174], [-88.027991, 41.353846], [-88.027037, 41.354926], [-88.020298, 41.365474], [-88.018097, 41.369267], [-88.015241, 41.37477], [-88.01181, 41.3806], [-87.999808, 41.38089], [-87.998661, 41.380254], [-87.902312, 41.381532], [-87.901793, 41.352483], [-87.900349, 41.294295], [-88.006293, 41.29255], [-88.106251, 41.291592], [-88.131603, 41.291151], [-88.133141, 41.334709]]]}}, {"type": "Feature", "properties": {"tract_fips": "17197883307"}, "geometry": {"type": "Polygon", "coordinates": [[[-88.138353, 41.4647], [-88.099053, 41.465923], [-88.022102, 41.467664], [-88.019557, 41.394956], [-88.038779, 41.394449], [-88.099172, 41.393424], [-88.099163, 41.393303], [-88.11433, 41.392948], [-88.114416, 41.393149], [-88.115898, 41.393117], [-88.116097, 41.392911], [-88.116286, 41.392976], [-88.127381, 41.378426], [-88.134896, 41.378247], [-88.137273, 41.434643], [-88.138353, 41.4647]]]}}, {"type": "Feature", "properties": {"tract_fips": "17197883402"}, "geometry": {"type": "Polygon", "coordinates": [[[-88.249188, 41.375691], [-88.186578, 41.376996], [-88.186582, 41.375071], [-88.18627, 41.371265], [-88.188748, 41.371054], [-88.187464, 41.348602], [-88.185767, 41.346865], [-88.180296, 41.339485], [-88.178423, 41.338173], [-88.177485, 41.337766], [-88.174871, 41.337226], [-88.161427, 41.337461], [-88.158328, 41.337566], [-88.158335, 41.337844], [-88.138805, 41.338426], [-88.137082, 41.349013], [-88.141521, 41.348941], [-88.141617, 41.35183], [-88.136606, 41.351937], [-88.13471, 41.363571], [-88.134264, 41.363575], [-88.132677, 41.32017], [-88.141801, 41.320028], [-88.142159, 41.317987], [-88.142663, 41.31657], [-88.143613, 41.31508], [-88.144999, 41.31369], [-88.147492, 41.312165], [-88.152775, 41.310265], [-88.155365, 41.308855], [-88.179144, 41.290089], [-88.218115, 41.289102], [-88.246993, 41.288579], [-88.249188, 41.375691]]]}}, {"type": "Feature", "properties": {"tract_fips": "17197883507"}, "geometry": {"type": "Polygon", "coordinates": [[[-87.906436, 41.469589], [-87.878776, 41.470017], [-87.787302, 41.469839], [-87.786184, 41.383082], [-87.902312, 41.381532], [-87.903548, 41.454305], [-87.905653, 41.454269], [-87.905925, 41.454415], [-87.906436, 41.469589]]]}}, {"type": "Feature", "properties": {"tract_fips": "17197883510"}, "geometry": {"type": "Polygon", "coordinates": [[[-88.022102, 41.467664], [-87.906436, 41.469589], [-87.905925, 41.454415], [-87.905653, 41.454269], [-87.903548, 41.454305], [-87.903073, 41.425182], [-87.940177, 41.424655], [-87.941557, 41.424769], [-87.944214, 41.425318], [-87.945488, 41.425366], [-87.98715, 41.42467], [-87.98796, 41.42488], [-87.991072, 41.426207], [-87.99576, 41.431797], [-88.020898, 41.431349], [-88.022102, 41.467664]]]}}, {"type": "Feature", "properties": {"tract_fips": "17197883603"}, "geometry": {"type": "Polygon", "coordinates": [[[-87.709966, 41.469638], [-87.709839, 41.469762], [-87.671212, 41.469768], [-87.670893, 41.445521], [-87.680714, 41.445981], [-87.68565, 41.44664], [-87.692933, 41.447155], [-87.69572, 41.447091], [-87.701486, 41.446134], [-87.70915, 41.448148], [-87.709497, 41.448432], [-87.709606, 41.448759], [-87.709966, 41.469638]]]}}, {"type": "Feature", "properties": {"tract_fips": "17197883606"}, "geometry": {"type": "Polygon", "coordinates": [[[-87.748271, 41.469731], [-87.709839, 41.469762], [-87.709972, 41.46948], [-87.709606, 41.448759], [-87.709497, 41.448432], [-87.708774, 41.448029], [-87.701486, 41.446134], [-87.695309, 41.447132], [-87.692933, 41.447155], [-87.690245, 41.446952], [-87.69014, 41.434731], [-87.689161, 41.434758], [-87.688514, 41.434981], [-87.687089, 41.436429], [-87.685154, 41.437575], [-87.682753, 41.437666], [-87.678024, 41.436942], [-87.6774, 41.438747], [-87.677503, 41.44584], [-87.670893, 41.445521], [-87.670569, 41.420352], [-87.728384, 41.419958], [-87.728675, 41.440916], [-87.729023, 41.441394], [-87.729759, 41.441707], [-87.733122, 41.441711], [-87.732119, 41.443626], [-87.732164, 41.456262], [-87.748058, 41.456119], [-87.748271, 41.469731]]]}}, {"type": "Feature", "properties": {"tract_fips": "17197883806"}, "geometry": {"type": "Polygon", "coordinates": [[[-87.57661, 41.43567], [-87.577103, 41.469993], [-87.525705, 41.470283], [-87.525591, 41.461011], [-87.525948, 41.443917], [-87.525815, 41.433059], [-87.526169, 41.408025], [-87.526072, 41.404415], [-87.526218, 41.38529], [-87.544969, 41.385152], [-87.544888, 41.392401], [-87.545582, 41.436249], [-87.547185, 41.436308], [-87.551611, 41.436018], [-87.57661, 41.43567]]]}}, {"type": "Feature", "properties": {"tract_fips": "17197883808"}, "geometry": {"type": "Polygon", "coordinates": [[[-87.626567, 41.391608], [-87.626382, 41.393796], [-87.625826, 41.39636], [-87.624746, 41.39909], [-87.62352, 41.40129], [-87.62241, 41.40277], [-87.620129, 41.405182], [-87.616996, 41.407692], [-87.61417, 41.40939], [-87.61014, 41.41116], [-87.586372, 41.418476], [-87.583646, 41.419814], [-87.581098, 41.421638], [-87.5786, 41.42438], [-87.57726, 41.42688], [-87.5766, 41.4296], [-87.57661, 41.43567], [-87.551611, 41.436018], [-87.547185, 41.436308], [-87.545582, 41.436249], [-87.544888, 41.392401], [-87.544969, 41.385152], [-87.625489, 41.38435], [-87.62612, 41.38706], [-87.626567, 41.391608]]]}}, {"type": "Feature", "properties": {"tract_fips": "17197883809"}, "geometry": {"type": "Polygon", "coordinates": [[[-87.670893, 41.445521], [-87.646605, 41.443581], [-87.631294, 41.444616], [-87.629869, 41.420616], [-87.628498, 41.402279], [-87.628123, 41.401363], [-87.6275, 41.400763], [-87.626879, 41.40042], [-87.624446, 41.39967], [-87.625826, 41.39636], [-87.626533, 41.39255], [-87.626538, 41.39059], [-87.62612, 41.38706], [-87.625489, 41.38435], [-87.670148, 41.383974], [-87.670893, 41.445521]]]}}, {"type": "Feature", "properties": {"tract_fips": "17197883902"}, "geometry": {"type": "Polygon", "coordinates": [[[-87.670148, 41.383974], [-87.526218, 41.38529], [-87.526675, 41.32691], [-87.526731, 41.298052], [-87.66938, 41.296778], [-87.670148, 41.383974]]]}}, {"type": "Feature", "properties": {"tract_fips": "17197883903"}, "geometry": {"type": "Polygon", "coordinates": [[[-87.786184, 41.383082], [-87.670148, 41.383974], [-87.66938, 41.296778], [-87.78468, 41.295818], [-87.786184, 41.383082]]]}}, {"type": "Feature", "properties": {"tract_fips": "17197883904"}, "geometry": {"type": "Polygon", "coordinates": [[[-87.902312, 41.381532], [-87.786184, 41.383082], [-87.78468, 41.295818], [-87.900349, 41.294295], [-87.901793, 41.352483], [-87.902312, 41.381532]]]}}, {"type": "Feature", "properties": {"tract_fips": "17197884005"}, "geometry": {"type": "Polygon", "coordinates": [[[-88.1897, 41.289819], [-88.153856, 41.290688], [-88.153543, 41.290145], [-88.15155, 41.287881], [-88.150574, 41.285932], [-88.148812, 41.280732], [-88.147306, 41.277251], [-88.14725, 41.274964], [-88.147771, 41.272658], [-88.147866, 41.270994], [-88.147388, 41.268789], [-88.14627, 41.266325], [-88.145848, 41.265662], [-88.144232, 41.264221], [-88.138245, 41.259784], [-88.137701, 41.259121], [-88.13701, 41.256279], [-88.136499, 41.254919], [-88.134324, 41.25326], [-88.131665, 41.25052], [-88.128944, 41.247161], [-88.12742, 41.245583], [-88.123513, 41.243664], [-88.117689, 41.242431], [-88.113476, 41.240812], [-88.111615, 41.240797], [-88.106639, 41.242112], [-88.104097, 41.241936], [-88.101737, 41.241315], [-88.099999, 41.240729], [-88.099225, 41.240298], [-88.096524, 41.237986], [-88.094596, 41.236923], [-88.085242, 41.234675], [-88.083435, 41.233986], [-88.080956, 41.232613], [-88.079802, 41.232191], [-88.075114, 41.230951], [-88.063603, 41.227524], [-88.061137, 41.227137], [-88.060049, 41.227112], [-88.055813, 41.227385], [-88.053505, 41.227364], [-88.048387, 41.226645], [-88.044753, 41.225585], [-88.042903, 41.224435], [-88.041709, 41.223364], [-88.040845, 41.222173], [-88.038223, 41.219244], [-88.034476, 41.217029], [-88.033802, 41.216504], [-88.032342, 41.214405], [-88.028726, 41.212116], [-88.026931, 41.210498], [-88.024171, 41.209232], [-88.02088, 41.208429], [-88.016104, 41.208059], [-88.011891, 41.208191], [-88.01181, 41.205508], [-88.128895, 41.203888], [-88.186532, 41.202645], [-88.1897, 41.289819]]]}}, {"type": "Feature", "properties": {"tract_fips": "17197884006"}, "geometry": {"type": "Polygon", "coordinates": [[[-88.153856, 41.290688], [-88.106251, 41.291592], [-88.013919, 41.292447], [-88.012631, 41.234659], [-88.011891, 41.208191], [-88.016104, 41.208059], [-88.02088, 41.208429], [-88.024171, 41.209232], [-88.026931, 41.210498], [-88.028726, 41.212116], [-88.032342, 41.214405], [-88.033802, 41.216504], [-88.034476, 41.217029], [-88.038223, 41.219244], [-88.040845, 41.222173], [-88.041709, 41.223364], [-88.042903, 41.224435], [-88.044753, 41.225585], [-88.045717, 41.225902], [-88.048387, 41.226645], [-88.053505, 41.227364], [-88.055813, 41.227385], [-88.060049, 41.227112], [-88.061137, 41.227137], [-88.063603, 41.227524], [-88.075114, 41.230951], [-88.079802, 41.232191], [-88.080956, 41.232613], [-88.083435, 41.233986], [-88.085242, 41.234675], [-88.094596, 41.236923], [-88.096524, 41.237986], [-88.099225, 41.240298], [-88.099999, 41.240729], [-88.101737, 41.241315], [-88.104097, 41.241936], [-88.106639, 41.242112], [-88.111615, 41.240797], [-88.113476, 41.240812], [-88.117689, 41.242431], [-88.123513, 41.243664], [-88.12742, 41.245583], [-88.128944, 41.247161], [-88.131665, 41.25052], [-88.134324, 41.25326], [-88.136499, 41.254919], [-88.13701, 41.256279], [-88.137701, 41.259121], [-88.138245, 41.259784], [-88.144232, 41.264221], [-88.145848, 41.265662], [-88.14627, 41.266325], [-88.147388, 41.268789], [-88.147866, 41.270994], [-88.147771, 41.272658], [-88.14725, 41.274964], [-88.147306, 41.277251], [-88.148812, 41.280732], [-88.150574, 41.285932], [-88.15155, 41.287881], [-88.153543, 41.290145], [-88.153856, 41.290688]]]}}, {"type": "Feature", "properties": {"tract_fips": "17197884103"}, "geometry": {"type": "Polygon", "coordinates": [[[-88.122708, 41.595249], [-88.086223, 41.596124], [-88.08432, 41.595753], [-88.080593, 41.594349], [-88.079101, 41.594145], [-88.076369, 41.594201], [-88.074929, 41.594006], [-88.071948, 41.593209], [-88.06865, 41.59172], [-88.066272, 41.591186], [-88.066999, 41.589178], [-88.068879, 41.582698], [-88.073121, 41.578598], [-88.075784, 41.575272], [-88.077896, 41.571077], [-88.078256, 41.567233], [-88.077825, 41.555275], [-88.078536, 41.552865], [-88.088083, 41.552623], [-88.088521, 41.559849], [-88.102041, 41.559525], [-88.102102, 41.561106], [-88.101864, 41.561562], [-88.102364, 41.562164], [-88.102552, 41.56676], [-88.087329, 41.567089], [-88.08405, 41.57773], [-88.08324, 41.57976], [-88.081968, 41.581789], [-88.122188, 41.58076], [-88.122708, 41.595249]]]}}, {"type": "Feature", "properties": {"tract_fips": "17197980000"}, "geometry": {"type": "Polygon", "coordinates": [[[-88.188748, 41.371054], [-88.18627, 41.371265], [-88.186582, 41.375071], [-88.186578, 41.376996], [-88.18687, 41.376992], [-88.186556, 41.377868], [-88.186419, 41.383336], [-88.183322, 41.38332], [-88.1834, 41.385552], [-88.18096, 41.385637], [-88.181108, 41.391693], [-88.174825, 41.391809], [-88.175076, 41.40362], [-88.162428, 41.403875], [-88.161856, 41.40307], [-88.161718, 41.402376], [-88.161818, 41.40178], [-88.165801, 41.391357], [-88.165456, 41.383216], [-88.164093, 41.379932], [-88.16309, 41.378903], [-88.163468, 41.37814], [-88.163531, 41.377568], [-88.127381, 41.378426], [-88.116286, 41.392976], [-88.116097, 41.392911], [-88.115898, 41.393117], [-88.114416, 41.393149], [-88.11433, 41.392948], [-88.099163, 41.393303], [-88.099172, 41.393424], [-88.038779, 41.394449], [-88.00213, 41.395313], [-88.011882, 41.380686], [-88.01181, 41.3806], [-88.015241, 41.37477], [-88.018097, 41.369267], [-88.020298, 41.365474], [-88.027037, 41.354926], [-88.027991, 41.353846], [-88.030538, 41.35174], [-88.031662, 41.350547], [-88.0326, 41.350023], [-88.045806, 41.335835], [-88.055582, 41.335725], [-88.05563, 41.33627], [-88.055911, 41.336407], [-88.075576, 41.335904], [-88.075873, 41.343445], [-88.082374, 41.346212], [-88.095277, 41.346056], [-88.095384, 41.349767], [-88.095983, 41.351252], [-88.095615, 41.352325], [-88.101675, 41.354925], [-88.103962, 41.352317], [-88.11449, 41.348051], [-88.114384, 41.345929], [-88.118363, 41.346206], [-88.126382, 41.34605], [-88.127299, 41.345805], [-88.127841, 41.345073], [-88.127449, 41.33487], [-88.133141, 41.334709], [-88.134264, 41.363575], [-88.13471, 41.363571], [-88.136606, 41.351937], [-88.141617, 41.35183], [-88.141521, 41.348941], [-88.137082, 41.349013], [-88.138805, 41.338426], [-88.158335, 41.337844], [-88.158328, 41.337566], [-88.173883, 41.337156], [-88.175893, 41.337383], [-88.177485, 41.337766], [-88.179738, 41.338984], [-88.180757, 41.339984], [-88.185077, 41.345982], [-88.187464, 41.348602], [-88.188748, 41.371054]]]}}]}